S/N,Clinic Name,Address,Coordinates,Latitude,Longitude
1,0160 TCM PHYSICIAN MEDICAL HALL,"119 Aljunied Ave 2, Singapore 380119","(1.3197303, 103.8865492)",1.3197303,103.8865492
2,11 INTEGRATED HEALTHCARE,"545 Orchard Rd, #11-09, Singapore 238882","(1.305512, 103.8300944)",1.305512,103.8300944
3,1DOC TCM,"11 Bedok North Street 1, #01-11 Heartbeat@Bedok, Singapore 469662","(1.3269753, 103.9321493)",1.3269753,103.9321493
4,21ST CENTURY TRAD CHINESE MEDICAL HALL,Singapore,"(1.352083, 103.819836)",1.352083,103.819836
5,3N+ PTE LTD,"28 Sin Ming Ln, Singapore 573972","(1.3600614, 103.8339298)",1.3600614,103.8339298
6,603 CHINESE MEDICAL HALL TRADING & ENTERPRISES,"603 Clementi West Street 1, Block 603, Singapore 120603","(1.3049124, 103.7672512)",1.3049124,103.7672512
7,ACCORD MEDICAL CLINIC,"325 Ubi Ave 1, Singapore 400325","(1.3277008, 103.9038411)",1.3277008,103.9038411
8,ACTURE BIOTECH PTE LTD,"9008 Tampines Street 93, Singapore 528843","(1.3399559, 103.9418321)",1.3399559,103.9418321
9,ACU POINT PTE. LTD.,"101 Irrawaddy Rd, #21-01/02 Royal Square at, Singapore 329565","(1.320642, 103.843233)",1.320642,103.843233
10,ACUHEALTH TCM MEDICAL CENTRE,"472 Tampines Street 44, #01-57, Singapore 520472","(1.3598359, 103.9535112)",1.3598359,103.9535112
11,PERFECT ACUPUNCTURE AND TUI NA THERAPY,"101, Upper Cross Street, #03-42 People's Park Centre","(1.2857619, 103.8439529)",1.2857619,103.8439529
12,ADMIRALTY MEDICAL CENTRE (TCM),"676 Woodlands Drive 71, #03-01 Kampung Admiralty, Singapore 730676","(1.4396901, 103.8007469)",1.4396901,103.8007469
13,ADVANCED TCM CLINIC,"371 Beach Rd, #B1-46, Singapore 199597","(1.3022946, 103.8623895)",1.3022946,103.8623895
14,AEQUILIBRIUM TCM,"9 King Albert Park, #02-13, Singapore 598332","(1.3370239, 103.7794324)",1.3370239,103.7794324
15,AG TCM,"220 Orchard Rd, #04-01, Singapore 238852","(1.301762, 103.838622)",1.301762,103.838622
16,AIK KONG TONG,"1 Rochor Canal Rd, #03-20A Sim Lim Square, Singapore 188504","(1.3030433, 103.8529208)",1.3030433,103.8529208
17,AIMIN ACUPUNCTURE & WEIGHT LOSS CENTRE PTE LTD,"51 Cuppage Road #01-05 
Singapore 229469","(1.3025349, 103.840202)",1.3025349,103.840202
18,AIMIN TCM HEALTHCARE ASSOCIATE PTE LTD,"432 Clementi Ave 3, Block 432, Singapore 120432","(1.3139896, 103.7625934)",1.3139896,103.7625934
19,AIMIN TCM WELLNESS CLINIC,"81 MacPherson Ln, #01-33, Singapore 360081","(1.332224, 103.886307)",1.332224,103.886307
20,AMK EVERGREEN LLP,"4190 Ang Mo Kio Ave 6, #02-01 Broadway Plaza, Singapore 569841","(1.3760492, 103.8451154)",1.3760492,103.8451154
21,AMK TCM CLINIC,"102 Hougang Ave 1, #01-1191, Singapore 530102","(1.3546817, 103.8907729)",1.3546817,103.8907729
22,AN JUN TCM HEALTHCARE,"81, Whampoa Drive, #01-907, Singapore, 320081","(1.3241423, 103.8564294)",1.3241423,103.8564294
23,AN KANG TCM,"359 Bukit Batok Street 31, #01-386, Singapore 650359","(1.3615613, 103.7512048)",1.3615613,103.7512048
24,ANCIENT CHINESE WELLNESS CENTRE,"Blk 7 Tanjong Pagar Plaza, Tg Pagar Rd, #02-109, Singapore 081007","(1.2768101, 103.8428746)",1.2768101,103.8428746
25,ANG LIANG MEDICAL HALL,"Clementi Ave 4, #01-21 Block 320, Singapore 120320","(1.3158364, 103.7645461)",1.3158364,103.7645461
26,ANG SHENG GE TCM,"17 Chu Lin Rd, Singapore 669910","(1.3576134, 103.7601537)",1.3576134,103.7601537
27,ANN YU LI TCM PTE LTD,"374 Bukit Batok Street 31, #01-164, Singapore 650374","(1.3585214, 103.7503546)",1.3585214,103.7503546
28,ANNIE TIANG TCM @ HQ,"11 E Coast Rd, #01-01 the Odeon, Singapore 428722","(1.3044104, 103.9020219)",1.3044104,103.9020219
29,APPLE WELLNESS CENTER,"2 Fusionopolis Wy, Singapore 138634","(1.2983903, 103.7886641)",1.2983903,103.7886641
30,ASIA TCM PTE LTD,BLK 642A PUNGGOL DRIVE #17-345. SINGAPORE 821642.,"(1.3981745, 103.916718)",1.3981745,103.916718
31,ASSURE FAMILY TCM CLINIC,"Blk 128 Ang Mo Kio Ave 3, #01-1861, Singapore 560128","(1.3707399, 103.8436398)",1.3707399,103.8436398
32,AT & TCM PTE LTD,Singapore,"(1.352083, 103.819836)",1.352083,103.819836
33,AVANT TCM CLINIC PTE LTD,"36 Beo Cres, #01-33, Singapore 160036","(1.2883406, 103.8271961)",1.2883406,103.8271961
34,BA YI TANG MEDICAL HALL,"77 Circuit Rd, Singapore 370077","(1.3285954, 103.8853804)",1.3285954,103.8853804
35,BAI CAO TANG TCM CLINIC,"Kitchener Rd, #02-83 Block 2, Singapore 200002","(1.3078199, 103.8591893)",1.3078199,103.8591893
36,BAI CHUAN TCM CLINIC PTE LTD,"1 Irving Pl, #02-15 The commerze@Irving, Singapore 369546","(1.3363, 103.8866183)",1.3363,103.8866183
37,BAI HUI TIAN TCM CLINIC LLP,"
Blk 475 Choa Chu Kang Avenue 3, #01 - 26, Sunshine Place, Singapore 680475","(1.3780266, 103.7389881)",1.3780266,103.7389881
38,BAN HOCK GUAN MEDICINE & ACUPUNCTURE CENTRE,"HDB Clementi #01-123, 713 Clementi West Street 2 (S)120713, Singapore 120713","(1.3040621, 103.762272)",1.3040621,103.762272
39,BAN JOO TONG,"354 Clementi Ave 2, Singapore 120354","(1.3135272, 103.7708724)",1.3135272,103.7708724
40,BAN LIN THONG DRUG STORE,"37 Circuit Rd, Singapore 370037","(1.3280546, 103.8867459)",1.3280546,103.8867459
41,BAN LONG MEDICAL HALL,"252 Jurong East St 24, #01-165, Singapore 600252","(1.3427455, 103.7377408)",1.3427455,103.7377408
42,BAN SUN CHAN CHINESE MEDICAL CENTRE,"254A Serangoon Central Dr, #01-183 Serangoon, Singapore 551254","(1.3544989, 103.8712444)",1.3544989,103.8712444
43,BAN YUEN FOH MEDICAL HALL,"Blk 7 Hougang Ave 3, #01-64, Singapore 530007","(1.362313, 103.8934198)",1.362313,103.8934198
44,BAO KANG CHINESE PHYSICIAN,"Blk 164 Bukit Merah Central, #03-3639, Singapore 150164","(1.2833943, 103.8164192)",1.2833943,103.8164192
45,BAO KANG TCM THERAPY,"390 Victoria Street #01-24 Village Hotel - Bugis, (Golden Landmark) Singapore 188061, Singapore 188061","(1.3023045, 103.8578797)",1.3023045,103.8578797
46,BAO MAN CHINESE MEDICAL CENTRE,"731 Yishun Street 72, #01-47 , Singapore 760731","(1.4283169, 103.8310968)",1.4283169,103.8310968
47,BAO YUAN TANG,"45 Boon Keng Rd, Singapore 339771","(1.318065, 103.8623248)",1.318065,103.8623248
48,BAO ZHI LIN CHINESE MEDICAL HALL,"10 Sago St, Singapore 059013","(1.2817095, 103.8444082)",1.2817095,103.8444082
49,BAO ZHI LONG TCM CLINIC,"Ang Mo Kio Ave 10, #01-1243 Block 443, Singapore 560443","(1.3667607, 103.8565486)",1.3667607,103.8565486
50,BAO ZHONG TANG TCM CENTRE,"Novena Specialist Center, 8 Sinaran Dr, #07-13/14, Singapore 307470","(1.3200774, 103.844764)",1.3200774,103.844764
51,BAOJIAN SHIUEN TRADITIONAL MEDICAL CARE,"Block 123 Lor 1 Toa Payoh, #01-495, Singapore 310123","(1.3386606, 103.8453818)",1.3386606,103.8453818
52,BCT TCM CLINIC,"675 Yishun Ave 4, #01-03, Singapore 760675","(1.420093, 103.8435275)",1.420093,103.8435275
53,BEACON CHINESE MEDICAL AND ACUPUNCTURE CLINIC,"214 Bedok North Street 1, #01-151, Singapore 460214","(1.3257784, 103.9320145)",1.3257784,103.9320145
54,BEAUTIFUL TIPS PTE LTD,Singapore,"(1.352083, 103.819836)",1.352083,103.819836
55,BEIJING HEALTH- LIFE CENTRE,"1 Jurong West Central 2, Singapore 648886","(1.3399257, 103.7062886)",1.3399257,103.7062886
56,BEIJING TCM PTE LTD,"35 Selegie Road #05-09, Level 5 Parklane Shopping Mall, Singapore 188307","(1.3005689, 103.8493227)",1.3005689,103.8493227
57,BEIJING TONG REN TAN SCIENCE ARTS (SINGAPORE) CO.PTE.LTD,Singapore,"(1.352083, 103.819836)",1.352083,103.819836
58,BEIJING TONG REN TANG,"209 South Bridge Rd, Singapore 058758","(1.2830399, 103.8459508)",1.2830399,103.8459508
59,BENG KONG EE SEAH,"210 Telok Ayer St, Masjid Al-Abrar, Singapore 068643","(1.2799359, 103.8471249)",1.2799359,103.8471249
60,BESS CHUA TCM CLINIC,"22 Yio Chu Kang #02-28 Highland Centre, Singapore, Singapore","(1.3812567, 103.833154)",1.3812567,103.833154
61,BIO CHINESE PHYSICIAN & FOOT THERAPY HALL,"433 Clementi Ave 3, #01-270, Singapore 120433","(1.3139753, 103.7621348)",1.3139753,103.7621348
62,BLOSSOM TCM CLINIC,"347 Bukit Batok Street 34, #01-260, Singapore 650347","(1.3623753, 103.751237)",1.3623753,103.751237
63,BO AI TCM CLINIC,"74 Whampoa Dr, #01-324, Singapore 320074","(1.3247063, 103.8576823)",1.3247063,103.8576823
64,BOLE TCM CLINIC,"232 Ang Mo Kio Avenue 3, 01-1210, Singapore 560232","(1.3683201, 103.8371633)",1.3683201,103.8371633
66,BOSONG TCM CLINIC PTE LTD,"Block 95 Lor 4 Toa Payoh, #01 - 58, Singapore 310095","(1.338873, 103.848997)",1.338873,103.848997
67,BRILLIANT MEDICINE & TRADING COMPANY,"618 Yishun Ring Road, #01-3240, Singapore 760618","(1.4187824, 103.8357588)",1.4187824,103.8357588
68,CAMFU TRADITIONAL CHINESE MEDICINE CLINIC,Singapore,"(1.352083, 103.819836)",1.352083,103.819836
69,CAO GUANG YU TCM CLINIC,"619 Geylang Rd, Singapore 389558","(1.3143434, 103.8873167)",1.3143434,103.8873167
70,CARING HEALTH TCM CLINIC," 973 HOUGANG STREET 91, #06-216, SINGAPORE (530973)","(1.3777734, 103.879919)",1.3777734,103.879919
71,CASTLE CHINESE MEDICAL HALL,"118 Aljunied Ave 2, #01-136, Singapore 380118","(1.3200589, 103.8872314)",1.3200589,103.8872314
72,CHA HENG CHOY ACUPUNCTURE & TCM PTE LTD,"147 Serangoon North Ave 1, Block 147, Singapore 550147","(1.3684886, 103.8726062)",1.3684886,103.8726062
73,CHAN MEDICAL HALL,"180 Bencoolen St, #01-80, Singapore 189646","(1.3017647, 103.8531752)",1.3017647,103.8531752
74,CHANG AN CHINESE MEDICAL TREATMENT,"449 Ang Mo Kio Ave 10, Singapore 560449","(1.3678938, 103.8559461)",1.3678938,103.8559461
75,CHANG CHENG CHINESE TRADITIONAL PHYSICIAN,Blk 5 Eunos Cres #01-2627 Singapore 400005,"(1.32128, 103.903556)",1.32128,103.903556
76,CHANG GE TRADITIONAL CHINESE MEDICAL HALL LLP,"95 Lorong 4 Toa Payoh, #01-48, Singapore 310095","(1.3388478, 103.8490256)",1.3388478,103.8490256
77,CHANG GEN TRADITIONAL CHINESE MEDICAL HALL,"Blk 95 Lor 4 Toa Payoh, #01-330, Singapore 310095","(1.3388478, 103.8490256)",1.3388478,103.8490256
78,CHANG JIANG ACUPUNCTURE & MEDICAL CENTRE,"164 Bukit Batok West Ave. 8, #01-150A Block 164, Singapore 650166","(1.3480437, 103.743287)",1.3480437,103.743287
79,CHANG JIANG MEDICAL & TRADING,"825 Tampines Street 81, #01-68, Singapore 520825","(1.3494537, 103.9327887)",1.3494537,103.9327887
80,CHANG LE,Singapore,"(1.352083, 103.819836)",1.352083,103.819836
81,CHANG LE TCM WELLNESS CLINIC,"338 Ang Mo Kio Ave 1, #01-1647, Singapore 560338","(1.3635721, 103.8485938)",1.3635721,103.8485938
82,CHANG QING CHINESE MEDICAL CENTRE,"150 Sims Ave, Singapore 387472","(1.3143493, 103.8792228)",1.3143493,103.8792228
83,CHANGCHUN TRADITIONAL CHINESE MEDICINE,"160 Yishun Street 11, Singapore 760160","(1.4324308, 103.8334122)",1.4324308,103.8334122
84,CHAOYANG TCM CLINIC PTE. LTD,"Hougang Ave 8, #01-947 Block684, Singapore 530684","(1.3746983, 103.8882516)",1.3746983,103.8882516
85,CHAU POH CLINIC CHINESE PHYSICIAN,"5 Siang Kuang Ave, Singapore 347923","(1.3291077, 103.8701583)",1.3291077,103.8701583
86,CHEE HOON SUN CHINESE PHYSICIAN,"Ang Mo Kio Ave 4, #01-1281 HDB, 607, Singapore 560607","(1.3762852, 103.839342)",1.3762852,103.839342
87,CHEE SENG MEDICAL HALL,"61 Teban Gardens Rd, #01-09, Singapore 600061","(1.3220488, 103.7380375)",1.3220488,103.7380375
88,CHEE SENG TONG MEDICAL HALL,"200 Upper Thomson Rd, #01-02 Imperial Court, Singapore 574424","(1.3518453, 103.8360304)",1.3518453,103.8360304
89,CHENG YI TANG YAO CAI YANG SHENG DIAN,"#02-5043A 465 NORTH BRIDGE ROAD, Singapore 191465","(1.3052745, 103.8631093)",1.3052745,103.8631093
90,CHEW YIK WAI TCM PHYSICIAN,"01-12 94 Lor 4 Toa Payoh, Singapore 310094","(1.3388453, 103.8501391)",1.3388453,103.8501391
91,CHI PRELUDE TCM WELLNESS LLP,"403 Bedok North Ave 3, Singapore 460403","(1.3297967, 103.9338404)",1.3297967,103.9338404
92,CHIA CHAY PUAY CLINIC,"18 Upper Boon Keng Rd, Singapore 380018","(1.3150559, 103.8723404)",1.3150559,103.8723404
93,CHIA KIT CHAY CLINIC,"822 Tampines Street 81 #01-192 Tampines Grove, Singapore 520822","(1.3483079, 103.9344749)",1.3483079,103.9344749
94,CHIEN CHI TOW,"253 Jurong East St 24, #01-219, Singapore 600253","(1.3430373, 103.7370664)",1.3430373,103.7370664
95,CHIME TCM CLINIC PTE. LTD.,"18 Teck Whye Ln, #01-99, Singapore 680018","(1.3782996, 103.7541248)",1.3782996,103.7541248
96,CHINATOWN CHINESE MEDICAL CENTER,"Upper Cross St, #01-156 Block 34, Singapore 050034","(1.2861551, 103.8422545)",1.2861551,103.8422545
97,CHINESE ACUPUNCTURE & CAUTERIZATION CENTRE,"545 Serangoon Rd, Singapore 218167","(1.315179, 103.8578239)",1.315179,103.8578239
98,CHINESE MEDICAL CENTRE PTE LTD,"149 Rochor Rd, Singapore 188425","(1.3013888, 103.8545062)",1.3013888,103.8545062
99,CHINESE PHYSICIAN CHRISTOPHER LEE'S CLINIC,"186 E Coast Rd, Singapore 428892","(1.3068882, 103.9065755)",1.3068882,103.9065755
100,CHINESE TRADITIONAL HEMED PTE LTD,"101 Upper Cross St, #03-59, Singapore 058357","(1.2855485, 103.844032)",1.2855485,103.844032
101,CHIT CHONG CHINESE MED CTR,"305 Ubi Ave 1, Block 305, Singapore 400305","(1.3295856, 103.9022859)",1.3295856,103.9022859
102,CHIU KAH FATT TCM & ACUPUNCTURE CLINIC PTE LTD,"Block 465 Crawford Ln, #02-32, Singapore 190465","(1.3052406, 103.8626516)",1.3052406,103.8626516
103,CHONG HOE HEALTH PRODUCTS CHINESE MEDICAL STORE,"71 Serangoon Garden Way, Singapore 555967","(1.3636505, 103.8652414)",1.3636505,103.8652414
104,CHONG HOE HEALTHCARE,"144 Upper Bukit Timah Rd, #02-14, Singapore 588177","(1.3423741, 103.7762593)",1.3423741,103.7762593
105,CHONG HOE SING PTE LTD,"211 Lor 8 Toa Payoh, #01-09, Singapore 310211","(1.340419, 103.8537637)",1.340419,103.8537637
106,CHONG POH CHINESE MEDICAL AND HEALTH PRODUCTS,"152 Serangoon North Ave 1, #01-324 Serangoon North Village, Singapore 550152","(1.3693554, 103.8723063)",1.3693554,103.8723063
107,CHONG POU NGIAN,"304 Woodlands Street 31, Singapore 730304","(1.4299812, 103.7737622)",1.4299812,103.7737622
108,CHOON ANN MEDICAL HALL,"HDB Yishun #01-109, Yishun Street 71, S)760729 Block 729, Singapore 760729","(1.4259435, 103.8315436)",1.4259435,103.8315436
109,CHOON CHIANG TONG MEDICAL HALL,"Blk 94 Lor 4 Toa Payoh, #01-18, Singapore 310094","(1.338907, 103.849576)",1.338907,103.849576
110,CHUA CLINIC TCM & ACUPUNCTURE,"279 Balestier Rd, #02-17, Singapore 329727","(1.3227181, 103.8520756)",1.3227181,103.8520756
111,CHUA THIAM HUAT TCM CENTRE,"803 Keat Hong Cl, #01-02, Singapore 680803","(1.3742286, 103.7427351)",1.3742286,103.7427351
112,CHUN HSING CHINESE PHYSICIAN LLP,"443 Ang Mo Kio Ave 10, Singapore 560443","(1.3661487, 103.8552796)",1.3661487,103.8552796
113,CHUN LIH MEDICAL HALL,"Golden Mile Clinic #02-5035, North Bridge Rd, S)191465 465, Singapore 191465","(1.2947532, 103.8528602)",1.2947532,103.8528602
114,CHUNG LING CHINESE MEDICINE SHOP,"151 Bishan St.11, #01-187, Singapore 570151","(1.3452056, 103.8553947)",1.3452056,103.8553947
115,CI CHUN ACUPUNCTURE & NATURAL MEDICAL HALL,"151 Chin Swee Rd, #01 - 23 Manhattan House, Singapore 169876","(1.2872367, 103.8405284)",1.2872367,103.8405284
116,CI EN TCM CLINIC,"8 BURN ROAD, #15-13, TRIVEX, Singapore 369977","(1.3358026, 103.8854342)",1.3358026,103.8854342
117,CI HUI MEDICAL CENTRE,"106 Yishun Ring Rd, #01-187 Chong Pang City, Singapore 760106","(1.4319514, 103.8274715)",1.4319514,103.8274715
118,CI KANG TCM,"574 Ang Mo Kio Ave 10, #01-1823, Singapore 560574","(1.370574, 103.8563662)",1.370574,103.8563662
119,CI KANG TCM CLINIC AND WELLNESS CENTRE,"574 Ang Mo Kio Ave 10, #01-1823, Singapore 560574","(1.370574, 103.8563662)",1.370574,103.8563662
120,CI YUAN TCM FREE CLINIC,"662 Hougang Ave 4, #01-409, Singapore 530662","(1.3745934, 103.8824021)",1.3745934,103.8824021
121,CI YUAN TCM PHYSICIAN & ACUPUNCTURIST,"128 Ang Mo Kio Ave 3, #01-1843, Singapore 560128","(1.3708105, 103.8435905)",1.3708105,103.8435905
122,CLS CHOO LED SIN CLINIC,"Blk 1, Tanjong Pagar Road, Tanjong Pagar Plz, #02-08, Singapore 082001","(1.2799485, 103.8441793)",1.2799485,103.8441793
123,COLEMAN TCM CLINIC STUDIO,"1 Coleman St, #03-47 The Adelphi, Singapore 179803","(1.2911845, 103.8512167)",1.2911845,103.8512167
124,COMBINED CHINESE MEDICAL HALL (TCM),"Blk 115 Jalan Bukit Merah, #01-1615, Singapore 160115","(1.2811564, 103.8264692)",1.2811564,103.8264692
125,COME-WELL CHINESE MEDICINE HALL,"632 Bedok Reservoir Rd, Singapore 470632","(1.3325442, 103.9142917)",1.3325442,103.9142917
126,COMPLEMENTARY INTEGRATIVE MEDICINE CLINIC,Singapore 308433,"(1.321097, 103.84564)",1.321097,103.84564
127,D&N CHINESE TREATMENT CENTRE,"46 Jln. Bukit Ho Swee, #01-886, Singapore 160046","(1.288346, 103.8262)",1.288346,103.8262
128,DA AI TCM CLINIC & HEALTH CARE CENTER,"30 Yishun Street 81, #03-06B , Singapore 768455","(1.4149934, 103.8348043)",1.4149934,103.8348043
129,DAH YEN MEDICAL HALL TRADING,"504 Tampines Central 1, #01-319, Singapore 520504","(1.3563603, 103.9455299)",1.3563603,103.9455299
130,DAJIA TCM CLINIC,"Bedok Central #01-134 Block 219, Singapore 460219","(1.3257572, 103.9335975)",1.3257572,103.9335975
131,DAO OF TCM CLINIC,"601 MacPherson Rd, #01-02 Grantral Mall@Macpherson, Singapore 368242","(1.3335017, 103.8871113)",1.3335017,103.8871113
132,DE KANG ACUPRESSURE HEALTH NATUROPATHY,"537 Bedok North Street 3, #01-517 Kaki Bukit Mall, Singapore 460537","(1.3323728, 103.9239596)",1.3323728,103.9239596
133,DE MING ACUPUNCTURE & TCM CENTRE,"4 Queen's Rd, Singapore 260004","(1.3191525, 103.8083359)",1.3191525,103.8083359
134,DE XING TCM PTE LTD,"160 Changi Road, #01-04 Hexacube, Singapore 419728","(1.3167388, 103.9024778)",1.3167388,103.9024778
135,DE YI CHINESE PHYSICIAN,"266 Serangoon Central Dr, #02-261, Singapore 550266","(1.3530907, 103.8713353)",1.3530907,103.8713353
136,DEHE TCM,"SG 1 Orchard Boulevard, Camden Medical centre, #07-07, Singapore 248649","(1.3032316, 103.8239372)",1.3032316,103.8239372
137,DI YI TCM PTE LTD,"10 Anson Rd, #02-87A/88 International Plaza, Singapore 079903","(1.2756998, 103.8458098)",1.2756998,103.8458098
138,DIYI TCM,"10 Anson Rd, #02-87A/88 International Plaza, Singapore 079903","(1.2756998, 103.8458098)",1.2756998,103.8458098
139,DONG HUA TCM CLINIC PTE LTD,"Blk, 785E Woodlands Rise, #01-05, Singapore 735785","(1.4469237, 103.805523)",1.4469237,103.805523
140,DONG JING JING TCM,"Blk 306 Ubi Ave 1, #01-193, Singapore 400306","(1.3298685, 103.9022552)",1.3298685,103.9022552
141,DONG SHAN CHINESE MEDICAL CENTRE,"164 Bukit Merah Central, #03 - 3647, Singapore 150164 ","(1.2833836, 103.8168058)",1.2833836,103.8168058
142,DONG XING TCM,"432 Clementi Ave 3, #01-288, Singapore 120432","(1.3140513, 103.7627647)",1.3140513,103.7627647
143,DR GEE SWEE SIEN,Singapore,"(1.352083, 103.819836)",1.352083,103.819836
144,DRAGON HEALTH CHINESE TREATMENT CENTER,"101 Upper Cross Street, #01-46, People's Park Centre, Singapore 058357","(1.285631, 103.8440929)",1.285631,103.8440929
145,DRAGON PAVILION CHINESE MEDICAL HALL,"27 Foch Rd, #02-03, Singapore 209264","(1.3126996, 103.8599433)",1.3126996,103.8599433
146,E JIA CHINESE PHYSICIAN,"239 Yishun Ring Rd, Singapore 760239","(1.433758, 103.8395755)",1.433758,103.8395755
147,EASTERN CLINIC,"1 Brooke Rd, #02-07 Katong Plaza, Singapore 429979","(1.3042198, 103.9038411)",1.3042198,103.9038411
148,EASTERN HEALING TCM CLINIC,"345 Clementi Ave 5, #01-88, Singapore 120345","(1.3176728, 103.7690165)",1.3176728,103.7690165
149,EC-CARE TCM& MATURAL THERAPY CENTRE,"85 Whampoa Dr, Singapore 320085","(1.322818, 103.8564166)",1.322818,103.8564166
150,ECON TCM SERVICES PTE LTD,"150 Bishan St.11, #01-135 Bishan Green, Singapore 570150","(1.344518, 103.855269)",1.344518,103.855269
151,EDWARD TCM,"272 South Bridge Rd, Singapore 058821","(1.2818147, 103.8447983)",1.2818147,103.8447983
152,ELEMENTS WELLNESS,#B1-30 ION Orchard,"(1.3039288, 103.8319492)",1.3039288,103.8319492
153,ELIN CHINESE PHYSICIAN & MEDICAL HALL,"132 Marsiling Rise, #01-214, Singapore 730132","(1.4383074, 103.7780248)",1.4383074,103.7780248
154,EMMANUEL TCM ACUPUNCTURE CLINIC,"Blk 333 # 01-15, Kreta Ayer Rd, #080333, Singapore 080333","(1.2806542, 103.8424919)",1.2806542,103.8424919
155,EMW PHYSIOTHERAPY & TCM CLINIC,"9 Scotts Road #10-04, Scotts Medical Centre @ Pacific Plaza, Singapore 228210","(1.3065981, 103.8320871)",1.3065981,103.8320871
156,EN YUE TCM CLINIC,"511 GUILLEMARD ROAD #03-16 GRANDLINK SQUARE Singapore, 399849 Singapore","(1.3143063, 103.8913349)",1.3143063,103.8913349
157,ENERGY TCM CLINIC,"355 Changi Rd, Singapore 419819","(1.318693, 103.9097756)",1.318693,103.9097756
158,ENG BAN LEONG MEDICAL HALL,"Jln Kukoh, #01-113 Block 3, Singapore 161003","(1.2881765, 103.8398758)",1.2881765,103.8398758
159,ENG CHEE TONG MEDICAL HALL,"84 Redhill Ln, Singapore 150084","(1.2872189, 103.8188084)",1.2872189,103.8188084
160,ENOK TRADITIONAL CHINESE MEDICINE CLINIC,"14 Scotts road #04-73 Far East plaza, Singapore 228213","(1.3060815, 103.8337432)",1.3060815,103.8337432
161,ENVISION TCM CLINIC,"6 Telok Blangah Cres, #01-430, Singapore 090006","(1.2782254, 103.8185015)",1.2782254,103.8185015
162,ESSENTIALS TRADITIONAL CHINESE MEDICINE,"211 New Bridge Rd, Singapore 059432","(1.283644, 103.8433191)",1.283644,103.8433191
163,ESTHER GOW,510 Jurong West Street 52,"(1.348454, 103.7195625)",1.348454,103.7195625
164,EU YAN SANG TCM CLINIC,"Singapore, 640510","(1.348459, 103.719656)",1.348459,103.719656
165,EVER SPRING MEDICAL GROUP PTE LTD,"42 Cambridge Rd, #01-04 Cambridge Owen Garden, Singapore 210042","(1.3158636, 103.8496597)",1.3158636,103.8496597
166,EVERGRACE TCM,"153 Serangoon North Ave 1, #01-550 Serangoon North Village, Singapore 550153","(1.3698756, 103.8717974)",1.3698756,103.8717974
167,EVERGREEN ACUPUNCTURE,"Blk 163 Ang Mo Kio Ave 4, #01-452, Singapore 560163","(1.3736715, 103.8382467)",1.3736715,103.8382467
168,EVERGREEN TCM CLINIC,"Blk 163 Ang Mo Kio Ave 4, #01-452, Singapore 560163","(1.3736715, 103.8382467)",1.3736715,103.8382467
169,EVERLASTING CHINESE HERBS & ACUPUNCTURE CENTRE,"183 Jalan Pelikat #01-42 s(537643, Singapore 537643","(1.3554603, 103.8881644)",1.3554603,103.8881644
170,EVERRISE TRADITIONAL HEALTHWAY SERVICES,"756 Upper Serangoon Rd, Singapore 534626","(1.3539782, 103.8786504)",1.3539782,103.8786504
171,EXPERT THERAPY SERVICE,"302 Woodlands Street 31, #01-275, Singapore 730302","(1.4315032, 103.7745058)",1.4315032,103.7745058
172,FAI YIN TONG TRADITIONAL MEDICINE,"820 Tampines Street 81, #01-524, Singapore 520820","(1.3479324, 103.9361065)",1.3479324,103.9361065
173,FENG JIAYANG TCM CLINIC PTE LTD,"2 Havelock Rd, #02-22, Singapore 059763","(1.2871749, 103.8451817)",1.2871749,103.8451817
174,FERRAGOLD,"629 Aljunied Rd, #01-03 Cititech Industrial Building, Singapore 389838","(1.3263714, 103.879554)",1.3263714,103.879554
175,FLOWER MOON TCM CLINIC,"101 Irrawaddy Road, @, #15-02 Royal Square Medical Centre, Singapore 329565","(1.3206053, 103.8432372)",1.3206053,103.8432372
176,FONG ACUPUNCTURE & MEDICAL HALL,"479 Jurong West Street 41, Singapore 640479","(1.3472221, 103.7244428)",1.3472221,103.7244428
177,FONG CHEONG PTE LTD MEDICAL HALL,"#01-56, Hong Lim Complex, 531 Upper Cross St, Singapore 050531","(1.2839893, 103.8458439)",1.2839893,103.8458439
178,FONG YOUNG ACUPUNCTURE & TRADITIONAL CHINESE MEDICAL HALL,"42 Chai Chee St, Singapore 461042","(1.3279408, 103.9257735)",1.3279408,103.9257735
179,FOO HAI BUDDHIST CULTURAL & WELFARE ASSOCIATION,"87 Geylang East Ave 2, Singapore 389753","(1.3180257, 103.8883247)",1.3180257,103.8883247
180,FOOK NGIAN TONG,"Block 18 Upper Boon Keng Rd, #01-1143 (5 min walk from Kallang MRT, Singapore 380018","(1.3148091, 103.8723619)",1.3148091,103.8723619
181,FOOK SANG TONG WONG KEE CHINESE SINSEH,"Blk 17, Bedok South Road, #01-587, Singapore 40017","(1.3201238, 103.9354484)",1.3201238,103.9354484
182,FOOT ARTISAN REFLEXOLOGY TCM,"149 Rochor Rd, #02-05 Fu Lu Shou Complex, Singapore 188425","(1.3017027, 103.8544208)",1.3017027,103.8544208
183,FOUR LEAF CLOVER HEALTHCARE TCM CLINIC,"5 Eunos Cres, #01-2617, Singapore 400005","(1.32128, 103.903556)",1.32128,103.903556
184,FU HUA ACUPUNCTURE MASSAGE THERAPY HALL,"18 Jln Sultan, Singapore 190018","(1.3032801, 103.8626198)",1.3032801,103.8626198
185,FU HUI TCM CLINIC,"105 Punggol Rd, Singapore 546636","(1.3797571, 103.8966511)",1.3797571,103.8966511
186,FU JIAN TCM MEDICAL CENTRE PTE LTD,"727 Clementi West Street 2, #01-246, Singapore 120727","(1.3041998, 103.763811)",1.3041998,103.763811
187,FU KANG TCM WELLNESS,"301 Ubi Ave 1, #01-261, Singapore 400301","(1.3307113, 103.9020287)",1.3307113,103.9020287
188,FU NAN TRADITIONAL CHINESE MEDICAL CENTRE,"152 Bukit Batok Street 11, #01-266, Singapore 650152","(1.3483489, 103.7442538)",1.3483489,103.7442538
189,FU TIAN ACUPUNCTURE & MEDICAL CENTRE,"988C Jurong West Street 93, Block 988A, Singapore 643988","(1.3358952, 103.6958416)",1.3358952,103.6958416
190,FUJIAN LIMING MEDICAL HEALTH PRODUCTS,"Blk 279 Bishan Street 24, #01-42, Singapore 570279","(1.3577287, 103.8441392)",1.3577287,103.8441392
191,FUNG ONN MEDICAL STORE,"Block 38 Margaret Dr, #02-04, Singapore 141038","(1.2979745, 103.8042697)",1.2979745,103.8042697
192,FYT MEDICAL & HEALTH,"144 Upper Bukit Timah Rd, #02-08 Beauty World Centre, Singapore 588177","(1.3423741, 103.7762593)",1.3423741,103.7762593
193,G&G TCM MEDICAL PTE LTD,"26 Pagoda St, Singapore 059187","(1.2832371, 103.844856)",1.2832371,103.844856
194,GIAN MIN MEDICAL CENTRE,"152 Mei Ling St, #01-16, Singapore 140152","(1.2938325, 103.8025977)",1.2938325,103.8025977
195,GINGKO TCM CENTRE,"101 Upper Cross St, #B1-57 People's Park Centre, Singapore 058357","(1.285631, 103.8440929)",1.285631,103.8440929
196,GM SPA PTE LTD,"432 Clementi Ave 3, #01-286, Singapore 120432","(1.3140671, 103.762702)",1.3140671,103.762702
197,GOH SIEW KUAN ACUPUNCTURE & TRADITIONAL CHINESE MEDICINE,"428 Jurong West Ave 1, Singapore 640428","(1.3516427, 103.725344)",1.3516427,103.725344
198,GOH TECK KIM (TCM),"170 Upper Bukit Timah Rd, Singapore 588179","(1.3431115, 103.7760782)",1.3431115,103.7760782
199,GOOD HEALTH MEDICAL TECHNOLOGY PTE. LTD., 21 Choa Chu Kang Avenue 4Lot 1 #02-27Singapore 689812,"(1.3852086, 103.7449371)",1.3852086,103.7449371
200,GOOD NEIGHBOUR MEDICAL HALL & HAIR SALOON,"Block 250, Tampines Street 21, #01-508, Singapore 520250","(1.3523254, 103.9484346)",1.3523254,103.9484346
201,GOODHEAL TCM WELLNESS,"81 Clemenceau Ave, #03-19 UE Square Shopping Mall, Singapore 239917","(1.2922133, 103.8425602)",1.2922133,103.8425602
202,GOODHEALTH TCM CLINIC,"150 Orchard Rd, #03-45 Orchard Plaza, Singapore 238841","(1.3010249, 103.8410995)",1.3010249,103.8410995
203,GOODLADY TCM BEAUTY,"131 Jurong Gateway Rd, Singapore 600131","(1.3346122, 103.7401826)",1.3346122,103.7401826
204,GOODWILL MEDICAL HALL & ACUPUNCTURE CENTRE,"214 Jurong East Street 21, Singapore 600214","(1.3392288, 103.7390607)",1.3392288,103.7390607
205,GRACE CHINESE PHYSICIAN TREATMENT CENTRE,10 ANSON ROAD #05-16 INTERNATIONAL PLAZA,"(1.2760651, 103.8458395)",1.2760651,103.8458395
206,GRAND OAK TCM CLINIC,"436A Joo Chiat Rd, Level 2, Singapore 427649","(1.306727, 103.9042383)",1.306727,103.9042383
207,GRANDLINK TCM CENTRE,"511 Guillemard Rd, Singapore 399849","(1.3143063, 103.8913349)",1.3143063,103.8913349
208,GRANDWELL CHINESE MEDICAL HALL,"Tampines St. 11, #01-132 Block 138, Singapore 521138","(1.3455889, 103.9469682)",1.3455889,103.9469682
209,GREAT WALL TCM & ACUPUNCTURE PTE LTD,"75D Redhill Rd, #01-106 & #01-114, Singapore 154075","(1.2884852, 103.81589)",1.2884852,103.81589
210,GREAT WALL TCM & WELLNESS PTE LTD,"75D Redhill Rd, #01-106 & #01-114, Singapore 154075","(1.2884852, 103.81589)",1.2884852,103.81589
211,GREEN LEAVES CHINESE MEDICAL THERAPY ACCUPUNCTURE CENTRE,7 HOUGANG AVENUE 3 #01-52 (S) 530007,"(1.362313, 103.8934198)",1.362313,103.8934198
212,GU FANG TCM CLINIC,"Block 35 Circuit Rd, #01-446, Singapore 370035","(1.3290329, 103.8857772)",1.3290329,103.8857772
213,GU JIN MEDICAL HALL,"109 Bukit Batok West Ave 6, Block 109, #01-12, Singapore 650109","(1.3469891, 103.7461618)",1.3469891,103.7461618
214,GUAN ANN CHAN GINSENG SUPPLIER,"504 Jurong West Street 51, #01-239, Singapore 640504","(1.3500908, 103.7188425)",1.3500908,103.7188425
215,GUAN HAI TCM PHYSICIAN CLINIC,"269 QUEEN STREET, #02-248, SINGAPORE (180269)","(1.3005734, 103.8541054)",1.3005734,103.8541054
216,GUAN HUAI TCM PHYSICIAN CLINIC,"Blk 269 Queen St #02-248, Singapore 180269","(1.3005734, 103.8541054)",1.3005734,103.8541054
217,GUAN TAI TCM PHYSICIAN,"85 Lorong 4 Toa Payoh, #01-332 , Singapore 310085","(1.336308, 103.84918)",1.336308,103.84918
218,GUAN YIN TCM CLINIC,"123 BUKIT MERAH LANE 1, #01-94, Singapore 150123","(1.2867152, 103.8037402)",1.2867152,103.8037402
219,GUANG AN TCM & HEALTH,"11 Tanjong Katong Road, KINEX Shopping Mall 02-12, #13, Singapore 437157","(1.3149417, 103.8945413)",1.3149417,103.8945413
220,GUANG JUN TCM CLINIC,"22 Yio Chu Kang Rd, #01-08 HIGHLAND CENTRE, Singapore 545535","(1.3553744, 103.8772068)",1.3553744,103.8772068
221,GUANG YI TANG TCM CENTRE LLP,"118 Aljunied Ave 2, #01-132, Singapore 380118","(1.3201264, 103.8872513)",1.3201264,103.8872513
222,GUANG ZHOU PANG JIN,"190 Middle Rd, #04-01, Singapore 188979","(1.3005243, 103.8521508)",1.3005243,103.8521508
223,GUI LIN CHINESE MEDICAL ACUPUNCTURE CENTRE,"282 Joo Chiat Rd, Singapore 427536","(1.3105249, 103.9014245)",1.3105249,103.9014245
224,GUI LIN DA TIAN (TCM) CENTRE,"50 EAST COAST ROAD, #02-81, ROXY SQUARE, Singapore 428769","(1.303884, 103.9043973)",1.303884,103.9043973
225,GUI YING TCM CLINIC,"411 Yishun Ring Rd, Singapore 760411","(1.4257773, 103.8474426)",1.4257773,103.8474426
226,GUN AUN CHON CHINESE GINSENG MEDICAL SHOP,"548 Woodlands Drive 44, #01-01, Singapore 730548","(1.4306343, 103.7934851)",1.4306343,103.7934851
227,GUO AN TANG TCM CLINIC,"Blk 502 Jurong West Ave 1, #02-823, Singapore 640502","(1.3504465, 103.7181955)",1.3504465,103.7181955
228,GUO TAI TCM REHAB & WELLNESS CENTRE SINGAPORE,"111 Somerset Rd, #03-29 TripleOne Somerset, Singapore 238164","(1.3001685, 103.8372952)",1.3001685,103.8372952
229,H & Z TCM PTE LTD,"271 Bukit Timah Rd, #02-03, Singapore 259708","(1.3167475, 103.8352596)",1.3167475,103.8352596
230,H2HAND WELLNESS PTE.LTD,"5 Thomson Rdg, Singapore 574635","(1.3527233, 103.8341284)",1.3527233,103.8341284
231,HAI MENG CHINESE PHYSICIAN & ACUPUNCTURIST,"36 Chai Chee Ave, #01-163 Block 36, Singapore 461036","(1.3253835, 103.9254085)",1.3253835,103.9254085
232,HAN DIAN TCM CLINIC PTE LTD,"930 Yishun Ave 2, #03-15, Singapore 769098","(1.4296131, 103.8358573)",1.4296131,103.8358573
233,HAN EN TCM CLINIC,"1 Brooke Road, Katong Plaza #02-09, Singapore 429979","(1.3042198, 103.9038411)",1.3042198,103.9038411
234,HAN SENG THYE MEDICAL PRODUCT TRADING,"809 Hougang Central, #01-184, Singapore 530809","(1.3712555, 103.893633)",1.3712555,103.893633
235,HAN YI TCM,"717 Bedok Reservoir Rd, #01-K1 Block 717, Singapore 470717","(1.3379979, 103.9259792)",1.3379979,103.9259792
236,HANG ZHOU CHINESE MEDICINE CENTRE,"330 ANG MO KIO AVENUE 1, #01-1811, TECK GHEE VIEW, Singapore 560330","(1.3625712, 103.8508583)",1.3625712,103.8508583
237,HANYIGUAN TCM PTE LTD,"501 W Coast Dr, #01-280, Singapore 120501","(1.3114253, 103.7590587)",1.3114253,103.7590587
238,HARMONY TCM CLINIC PTE LTD,"190 Clemenceau Ave, #02-29, Singapore 239924","(1.2981622, 103.844132)",1.2981622,103.844132
239,HARMONY TCM HEALTHCARE,"412 Bedok North Ave 2, #01-142, Singapore 460412","(1.3297567, 103.9309398)",1.3297567,103.9309398
240,HARVEST TCM,"1 PEMIMPIN DRIVE, #06-08, ONE PEMIMPIN, Singapore 576151","(1.3519089, 103.8428151)",1.3519089,103.8428151
241,HE HUA WELLNESS CENTRE,"338 ANG MO KIO AVENUE 1, #01-1611, TECK GHEE COURT, Singapore 560338","(1.3636116, 103.848561)",1.3636116,103.848561
242,HE LE XUAN LLP,"232 Hougang Ave 1, Block 232, Singapore 530232","(1.3587044, 103.8886968)",1.3587044,103.8886968
243,HE RUN TCM CLINIC,"40 Beo Cres, #01-18, Singapore 160040","(1.289139, 103.8274322)",1.289139,103.8274322
244,HE XIE TCM HEALTHCARE,"Blk186 Toa Payoh Central, #01-426, Singapore 310186","(1.3342641, 103.8490489)",1.3342641,103.8490489
245,HEALING HEALTH TCM THERAPY PTE LTD,"Blk 1 Tanjong Pagar Plz, #01-09, Singapore 082001","(1.275726, 103.842667)",1.275726,103.842667
246,HEALIX TCM PTE LTD,"5 Jln Wangi, Sennett Estate, Singapore 349352","(1.3301131, 103.8742158)",1.3301131,103.8742158
247,HEALTH & BEAUTY PTE LTD,"38 Upper Cross St, Singapore 058341","(1.2842273, 103.844889)",1.2842273,103.844889
249,HEALTH AND BALANCE TCM,"190 Clemenceau Ave, #06-01, Singapore 239924","(1.2981622, 103.844132)",1.2981622,103.844132
250,HEALTH LAB TCM WELLNESS,"111 SOMERSET ROAD, #03-29, Singapore 238164","(1.300171, 103.8374419)",1.300171,103.8374419
251,HEALTH RECOVERY TCM MEDICAL CLINIC,"123 Lor 1 Toa Payoh, #01-507, Singapore 310123","(1.3386474, 103.8456739)",1.3386474,103.8456739
252,HEALTH TRADITIONAL MEDICINE LIMITED,"111 North Bridge Rd, Singapore 179098","(1.2923407, 103.8508826)",1.2923407,103.8508826
253,HEALTH TRADITIONAL MEDICINE PTE LTD,"1 Commonwealth Ln, #08-02 One Commonwealth, Singapore 149544","(1.3044545, 103.7968082)",1.3044545,103.7968082
254,HEALTHCARE ACUPUNCTURE & CHINESE MEDICINE CENTRE,"254A Serangoon Central Dr, #01-169, Singapore 551254","(1.354454, 103.870966)",1.354454,103.870966
255,HEALTHY LIFE TCM SERVICES,"76 Bras Basah Rd, #05-02 Carlton Hotel Singapore, Singapore 189558","(1.2959543, 103.8528188)",1.2959543,103.8528188
256,HEALTHY LIVING TCM CLINIC,"150A BISHAN STREET 11, #01-163, Singapore 571150","(1.3448624, 103.8555445)",1.3448624,103.8555445
257,HEART SPRINGS HOLDINGS PTE LTD,"50 UBI AVENUE 3, #03-18, FRONTIER · 408866 ","(1.3315802, 103.8953001)",1.3315802,103.8953001
258,HEARTCORE TCM PTE LTD,"16 Waringin Pk, Singapore 416329","(1.3218108, 103.9177264)",1.3218108,103.9177264
259,HEITMAN WELLNESS CENTRE PTE LTD,"100 Eu Tong Sen St, Singapore 059812","(1.2818682, 103.8407372)",1.2818682,103.8407372
260,HENG CHINESE PHYSICIAN & ACUP.CTR,"22 Yio Chu Kang Rd, #01-28, Singapore 545535","(1.355287, 103.8773879)",1.355287,103.8773879
261,HENG SAY TONG MEDICAL HALL PTE LTD,"101 Upper Cross St, Singapore 058357","(1.2857619, 103.8439529)",1.2857619,103.8439529
262,HENG SHAN CHINESE MEDICINE,"51 Upper Serangoon Rd, #03-08 POIZ CENTRE MALL, Singapore 347697","(1.3311415, 103.868219)",1.3311415,103.868219
263,HERBALMED CHINESE MEDICAL CLINIC,"26 Jln Membina, #01-05, Singapore 161026","(1.2830915, 103.8256746)",1.2830915,103.8256746
264,HERBS HEALTH BEN CAO KANG MU PTE LTD,"210 Hougang St 21, #01-237, Singapore 530210","(1.3594673, 103.8867112)",1.3594673,103.8867112
265,HERBS JUNCTION,Singapore 058727,"(1.285134, 103.846524)",1.285134,103.846524
266,HERITAGE TCM CLINIC,"304 Orchard Road Lucky Plaza, #05-43 , Singapore 238863","(1.3045795, 103.8340621)",1.3045795,103.8340621
267,HERWILL TCM,"10 North Bridge Rd, #02-5115, Singapore 190010","(1.3056158, 103.8635202)",1.3056158,103.8635202
268,HEYI TCM CLINIC,Singapore,"(1.352083, 103.819836)",1.352083,103.819836
269,HO HEALTH SERVICE,"18 Jln Membina, #02-01 TIONG BAHRU COURT, Singapore 164018","(1.2854893, 103.8267767)",1.2854893,103.8267767
270,HO HONG MENG TCM PTD LTD,"801 Tampines Ave 4, #01-277, Singapore 520801","(1.3470354, 103.9380429)",1.3470354,103.9380429
271,HO KAR CHOON MEDICAL PRODUCT AND TRADING CO,"Blk 34 Upper Cross St, #03-144, Singapore 050034","(1.2861551, 103.8422545)",1.2861551,103.8422545
272,HOCK ANN TONG,"64 Circuit Rd, Singapore 370064","(1.3269922, 103.8870741)",1.3269922,103.8870741
273,HOCK LAM HANG MEDICAL HALL,"Bukit Batok West Ave 6, #01-262 Block 152, Singapore 650152","(1.3482952, 103.744259)",1.3482952,103.744259
274,HOCK LEONG ANN,"231A Sumang Ln, #01-03 Block 231A HDB Matilda Court, Singapore 821231","(1.4021288, 103.8918026)",1.4021288,103.8918026
275,HOLO TRADITIONAL CHINESE MEDICINE CLINIC LLP,"144 Upper Bukit Timah Rd, #01-25 Beauty World Centre, Singapore 588177","(1.3423741, 103.7762593)",1.3423741,103.7762593
276,HONG DA ZHONG YI GUAN,"87 Circuit Rd, #01-979 MacPherson Oasis, Singapore 370087","(1.3233405, 103.8857164)",1.3233405,103.8857164
277,HONG LAI CHINESE MEDICINE,"408, Ang Mo Kio Avenue 10, #01-803, Singapore 560408","(1.3625408, 103.854642)",1.3625408,103.854642
278,HONG REN TCM CLINIC,"1 Jalan Bukit Merah, Singapore 150001","(1.2864913, 103.8083538)",1.2864913,103.8083538
279,HONG YI TCM HEALTHCARE PTE LTD,"16, Arumugam Road, #01-03, LTC Building D, Singapore 409961.","(1.3254504, 103.8915118)",1.3254504,103.8915118
280,HONG ZHENG LIANG YI PTE LTD,"8 ADMIRALTY STREET
#05-14
ADMIRAX
SINGAPORE (757438)","(1.4625623, 103.8160974)",1.4625623,103.8160974
281,HOUGANG CHINESE MEDICAL CLINIC,"56 New Upper Changi Rd, #01-1290 Bedok Ixora, Singapore 461056","(1.3251009, 103.9409673)",1.3251009,103.9409673
282,HOUSE CALL CHINESE MEDICINE CLINIC,"Holland Cl, Block 4, Singapore 271004","(1.3079478, 103.7957744)",1.3079478,103.7957744
283,HOUSE OF HERBS TCM CENTRE LLP,"6001 Beach Rd, Singapore 199589","(1.3019707, 103.8643149)",1.3019707,103.8643149
284,HSI CHINESE MEDICINE,"304 Orchard Rd, Suite #05 - 33 Lucky Plaza, Singapore 238863","(1.304493, 103.8340333)",1.304493,103.8340333
285,HTCM PTE LTD,Singapore,"(1.352083, 103.819836)",1.352083,103.819836
286,HUA AN TCM CLINIC,"Blk 119 Aljunied Ave 2, #01-24, Singapore 380119","(1.3202062, 103.8861329)",1.3202062,103.8861329
287,HUA DE TCM CLINIC,"306 Choa Chu Kang Ave 4, #01-679C, Singapore 680306","(1.3849112, 103.7428316)",1.3849112,103.7428316
288,HUA KANG CHINESE MEDICAL AND THERAPY CENTRE,"532 Ang Mo Kio Ave 10, #01-2481, Singapore 560532","(1.3738425, 103.8547418)",1.3738425,103.8547418
290,HUA KUN ACUPUNCTURE CLINIC,"Katong Plaza, 1 Brooke Rd, #02-24, Singapore 429979","(1.3043247, 103.9037455)",1.3043247,103.9037455
291,HUA MEI ACUPUNCTURE & TCM CENTRE,"128 Bukit Merah View, #01-46 Block 128, Singapore 150128","(1.2830019, 103.8236677)",1.2830019,103.8236677
292,HUA XIA TRADITIONAL TCM CLINIC,"124 Bukit Merah Lane 1, Singapore 150123","(1.2859123, 103.8034685)",1.2859123,103.8034685
293,HUA YU ACUPUNCTURE & MEDICAL CLINIC,"Blk 526, Ang Mo Kio Ave 10, #01-2417, Singapore 560526","(1.3730872, 103.8540919)",1.3730872,103.8540919
294,HUANONG ACUPUNCTURE & CHINESE MEDICINE,"731 Yishun Street 72, #01-41, Singapore 760731","(1.4283331, 103.8311445)",1.4283331,103.8311445
295,HUI HAO TCM CLINIC PTE LTD,"55 Changi Rd, #02-30 Millage, Singapore 419709","(1.3169989, 103.8989765)",1.3169989,103.8989765
296,HUI JI KANG TRADITIONAL CHINESE MEDICINE HEALTH PTE LTD,"351 Jurong East Street 31, Block 351, Singapore 600351","(1.3448615, 103.7307969)",1.3448615,103.7307969
297,HUI REN TCM PTE LTD,"693 WOODLANDS AVENUE 6, #01-07, Singapore 730693","(1.4379932, 103.8037955)",1.4379932,103.8037955
298,HUI SHENG TCM CLINIC PTE LTD,"190 Clemenceau Ave, #01-11 & #02-24 Singapore Shopping Centre, Singapore 239924","(1.298199, 103.8441246)",1.298199,103.8441246
299,HWA XIA CHINESE MEDICINE & THERAPY CENTRE,"34 Whampoa W, #01-71, Singapore 330034","(1.3201053, 103.8625924)",1.3201053,103.8625924
300,HWEALTH TCM CARE PTE LTD,"1 RAFFLES LINK, #B1-18/20, ONE RAFFLES LINK, Singapore 039393","(1.2913003, 103.8551945)",1.2913003,103.8551945
301,IAG HEALTHSCIENCES PTE LTD,"290 Orchard Road #07-11/12, Paragon Medical Suites, Singapore, 238859","(1.3038024, 103.835542)",1.3038024,103.835542
302,IBEAUTY WELLNESS & TCM PTE LTD,"703 Ang Mo Kio Ave 8, #01-2531/#02-2529, Singapore 560703","(1.3697965, 103.8473553)",1.3697965,103.8473553
303,IDEAL TCM CLINIC,"78B Telok Blangah Street 32, #01-23, Singapore 102078","(1.2736245, 103.8082585)",1.2736245,103.8082585
304,INNOVATIVE TCM CENTRE PTE LTD,"Blk 123 Lor 1 Toa Payoh, #01-519, Singapore 310123","(1.3385523, 103.8451757)",1.3385523,103.8451757
305,INTEGRAL NATURAL TREATMENT CENTRE,"1 Coleman St, Singapore 179803","(1.2913131, 103.8512472)",1.2913131,103.8512472
306,INTERNATIONAL ACUPUNCTURE CENTRE,"2 Serangoon Terrace, Singapore 535747","(1.3478645, 103.8772678)",1.3478645,103.8772678
307,J-S MEDICAL & ACUPUNCTURE CENTRE,"436 Hougang Avenue 8, #B1-1505, Hibiscus@Ang Mo Kio, Singapore 530436","(1.377232, 103.8941381)",1.377232,103.8941381
308,JANE TCM CLINIC PTE LTD,"305 WOODLANDS STREET 31, #01-55, FUCHUN NEIGHBOURHOOD CENTRE, Singapore 730305","(1.4303678, 103.7740864)",1.4303678,103.7740864
309,JI CHINESE PHYSICIAN & SPRAIN TREATMENT CENTRE,"412 Bedok North Ave 2, #01-124, Singapore 460412","(1.3298365, 103.9309174)",1.3298365,103.9309174
310,JI LIN TCM CLINIC,"725 Clementi West Street 2, #01-202, Singapore 120725","(1.3035373, 103.7637321)",1.3035373,103.7637321
311,JI SHI TCM CLINIC,"Blk 354 Clementi Ave 2, #01-243, Singapore 120354","(1.3135272, 103.7708724)",1.3135272,103.7708724
312,JI TCM HEALTH AND WELLNESS PTE LTD,"729 Ang Mo Kio Ave 6, #01-4280 AMK Central, Singapore 560729","(1.3738924, 103.845975)",1.3738924,103.845975
313,JIA KANG TCM CLINIC,"66 Lor 4 Toa Payoh, #01-307, Vista 310066","(1.3349895, 103.8515874)",1.3349895,103.8515874
314,JIA LE TCM WELNESS,"Bishan Street 24, Block 288, Singapore 570288","(1.3569571, 103.8450399)",1.3569571,103.8450399
315,JIACHENG THERAPEUTIC SERVICES,"539 Bukit Batok Street 52, #01-571, Singapore 650539","(1.3548025, 103.7507153)",1.3548025,103.7507153
316,JIAN KANG ZI YEW PTE LTD,"517 W Coast Rd, Singapore 120517","(1.3074868, 103.7601426)",1.3074868,103.7601426
317,JIANG SHAN TCM PTE LTD,"215 Ang Mo Kio Avenue 1, Ang Mo Kio Street 22, #01-895, Singapore 560215","(1.3664997, 103.8415977)",1.3664997,103.8415977
318,JIANG XIN CHINESE PHYSICIAN & THERAPY CENTER,"BLK 308 HOUGANG AVENUE 5#01-K1 530308, Singapore 530308","(1.3668434, 103.8958175)",1.3668434,103.8958175
319,JIANKANG TCM HEALTHCARE CENTRE,"261 Waterloo St, Singapore 180261","(1.2989163, 103.8519697)",1.2989163,103.8519697
320,JIMMY YONG LIN SWEE,Singapore,"(1.352083, 103.819836)",1.352083,103.819836
321,JIN ACUPUNCTURE & ACUPRESSURE CENTRE PTE LTD,"255J Bukit Timah Rd, Singapore 259696","(1.3150074, 103.8360951)",1.3150074,103.8360951
322,JIN GU LIAO CHINESE MEDICAL CENTRE,"Blk 854 Jurong West Street 81, #01-502, Singapore 640854","(1.3473154, 103.6961112)",1.3473154,103.6961112
323,JIN HO TCM ACUPUNCTURE CLINIC,"846 Yishun Ring Rd, Singapore 760846","(1.4167918, 103.8345779)",1.4167918,103.8345779
324,JIN HUANG CHINESE PHYSICIAN,"85, Lor 4 Toa Payoh, #01-336, Singapore 310085 Lor 4 Toa Payoh, Singapore 310085","(1.3363581, 103.8484195)",1.3363581,103.8484195
325,JIN ON TONG CHINESE MEDICAL HALL,"48 Sims Pl, #01-153, Singapore 380048","(1.3176275, 103.8794638)",1.3176275,103.8794638
326,JIN YI TCM ACUPUNCTURE CLINIC,"67 Kallang Bahru, #01-455, Singapore 330067","(1.3216524, 103.8692281)",1.3216524,103.8692281
327,JING XIN TCM BEAUTY,"322 Hougang Ave 5, #01-78, Singapore 530322","(1.3670512, 103.8972259)",1.3670512,103.8972259
328,JIUJIU TANG TCM MEDICAL HALL,"330 Ang Mo Kio Ave 1, Singapore 560330","(1.3624069, 103.8510188)",1.3624069,103.8510188
329,JK FOOT EAST PTE LTD,"1 PARK ROAD, #02-64, PEOPLE'S PARK COMPLEX, Singapore 059108","(1.2841943, 103.842554)",1.2841943,103.842554
330,JK WELLNESS PTE LTD,"1 PARK ROAD, #02-64, PEOPLE'S PARK COMPLEX, SINGAPORE 059108","(1.2841943, 103.842554)",1.2841943,103.842554
331,JOO HWA CHINESE PHYSICIAN,"825 Tampines Street 81, #01-66 Shop T West, Singapore 520825","(1.3495277, 103.9324664)",1.3495277,103.9324664
332,JOVIAL WELLNESS & AESTHETIC,"8 Eu Tong Sen St, #24-84 The Central, Singapore 059818","(1.2891137, 103.8466671)",1.2891137,103.8466671
333,JOY TCM CLINIC,"64 Circuit Rd, #01-357, Singapore 370064","(1.3269877, 103.8870782)",1.3269877,103.8870782
334,JUIZE TCM CLINIC,"160 Changi Rd, #02-06 HexaCube, Singapore 419728","(1.3168537, 103.9024191)",1.3168537,103.9024191
335,JUN KANG TCM PTE LTD,"Lor 6 Toa Payoh, #01-146 Block 47, Singapore 310047","(1.3380639, 103.8534021)",1.3380639,103.8534021
336,JURONG CHINESE MEDICAL,"221 Boon Lay Pl, Singapore 640221","(1.3462076, 103.7124343)",1.3462076,103.7124343
337,JUYUAN TCM CLINIC PTE LTD,"Bukit Batok Central, #01-62 Block 642, Singapore 650642","(1.3590288, 103.7636796)",1.3590288,103.7636796
338,K C KOH CHINESE PHYSICIAN,"77, INDUS ROAD, #01-501, SINGAPORE 160077","(1.2911534, 103.826743)",1.2911534,103.826743
339,KANG AN TCM CLINIC,"604 Sembawang Rd, #B1-06 Sembawang Shopping Centre, Singapore 758459","(1.4419295, 103.8249875)",1.4419295,103.8249875
340,KANG JI TCM PTE LTD,"380 CLEMENTI AVENUE 5 , #01-372 , SINGAPORE (120380)","(1.318428, 103.7674738)",1.318428,103.7674738
341,KANG LI TCM PTE LTD,"11 Collyer Quay, #01-06 The Arcade, Singapore 049317","(1.2835277, 103.8522906)",1.2835277,103.8522906
342,KANG MEI TCM THERAPY,"10 ANSON ROAD, #01-22, INTERNATIONAL PLAZA, Singapore 079903","(1.2756998, 103.8458098)",1.2756998,103.8458098
343,KANG MING FREE CLINIC,"122 Teck Whye Ln, #01-836, Singapore 680122","(1.3788439, 103.7501226)",1.3788439,103.7501226
344,KANG SHENG CHINESE PHYSICIAN & ACUPUNCTURE,"419 Tampines Street 41, #01-98A, Singapore 520419","(1.3577349, 103.9466442)",1.3577349,103.9466442
345,KANG SHOU TCM CENTRE,"111 Somerset Rd, #03-36 TripleOne Somerset, Singapore 238164","(1.3001685, 103.8372952)",1.3001685,103.8372952
346,KANGPO TCM BEAUTY AND ACUPUNTURE PTE LTD,"170 Joo Chiat Rd, Singapore 427441","(1.3128118, 103.8998792)",1.3128118,103.8998792
347,KELLY ORIENTAL TRADING,"269 Holland Ave, Singapore 278990","(1.3117067, 103.7953187)",1.3117067,103.7953187
348,KENT CHINESE PHYSICIAN,"443 Ang Mo Kio Ave 10, #01-1235 st 43, Singapore 560443","(1.3660572, 103.8553113)",1.3660572,103.8553113
349,KIAN HOCK MEDICAL HALL,"50 Bukit Batok Street 23, #05-26/27 Midview Building, Singapore 659578","(1.3392632, 103.7573987)",1.3392632,103.7573987
350,KIAN HOE MEDICAL HALL/TCM CENTRE,"440 Pasir Ris Drive 4, #01-21, Singapore 510440","(1.3692936, 103.9582787)",1.3692936,103.9582787
351,KIAT SIONG CLINIC & ACUPUNCTURE,"Blk 465 Crawford Ln, Unit #01-30 Crawford Centre, Singapore 190465","(1.3052406, 103.8626516)",1.3052406,103.8626516
352,KIM CHOON ACUPUNCTURE & CHINESE MEDICINE CENTRE PTE LTD,"67 Kallang Bahru, Singapore 330067","(1.3217528, 103.8691372)",1.3217528,103.8691372
353,KIM SENG TUINA CENTRE,"541 Jurong West Ave 1, Singapore 640541","(1.35122, 103.7160219)",1.35122,103.7160219
354,KIM SOON TCM & HEALTHCARE CENTRE,"119 Aljunied Ave 2, #01-12, Singapore 380119","(1.3199663, 103.8858331)",1.3199663,103.8858331
355,KIN TECK TONG,"B2-30/31, 133 New Bridge Road, Singapore 059413","(1.2852093, 103.8447228)",1.2852093,103.8447228
356,KIND TCM CLINIC,"Scotts Square, Scotts Rd, B1-20 6, Singapore 228209","(1.3058788, 103.8329554)",1.3058788,103.8329554
357,KIONG ONN MEDICAL HALL,"682 Hougang Ave 4, #01-374, Singapore 530682","(1.3744162, 103.8859626)",1.3744162,103.8859626
358,KIT CHAY MEDICAL HALL,"1010-A Upper Serangoon Rd, Singapore 534748","(1.3576474, 103.8824703)",1.3576474,103.8824703
359,KOH TCM CLINIC,"132 GEYLANG EAST AVENUE 1 #04-237 GEYLANG EAST GROVE Singapore, 380132 Singapore","(1.3162784, 103.8858583)",1.3162784,103.8858583
360,KONG CHOI TCM & ACUPUNCTURE CLINIC,"Block 163 Ang Mo Kio Ave 4, #01-464, Singapore 560163","(1.3737204, 103.8382771)",1.3737204,103.8382771
361,KONG'S TCM,"135 Jurong Gateway Rd, #04-349, Singapore 600135","(1.3338318, 103.7397319)",1.3338318,103.7397319
363,KUO T H CHINESE MEDICINE CENTRE,"10 Sinaran Dr, #03 - 47, Singapore 307506","(1.3207816, 103.8443823)",1.3207816,103.8443823
364,KWELIN ACUPUNCTURE CLINIC AND MEDICAL HALL,"Telok Blangah Dr, #01-175 Block 45, Singapore 100045","(1.2729361, 103.807824)",1.2729361,103.807824
365,LA GUERISON TRADITIONAL CHINESE MEDICINE,"10 Anson Rd, #02-52, International Plaza, Singapore 079903","(1.2756563, 103.8457858)",1.2756563,103.8457858
366,LA MAISON DE JA (LMDA GROUP),Singapore,"(1.352083, 103.819836)",1.352083,103.819836
367,LAN XIN TCM HEALTH MANAGEMENT,"43 Holland Dr, #01-63, Singapore 270043","(1.3074419, 103.7930089)",1.3074419,103.7930089
368,LE KANG TCM,"22A Cheong Chin Nam Rd, Singapore 599746","(1.3436598, 103.775048)",1.3436598,103.775048
369,LE TRAITEMENT TCM PTE LTD,"101 Upper Cross Street People's Park Centre, #B1, #21, Singapore 058357","(1.285631, 103.8440929)",1.285631,103.8440929
370,LEE KAI ENG CHINESE MEDICINE SERVICES,"Indus Rd, #01-493 Block 78, Singapore 161078","(1.2915025, 103.8271968)",1.2915025,103.8271968
371,LEE KIM LEONG ACUPUNCTURE CENTRE,"34 Lor 23 Geylang, Singapore 388368","(1.3142295, 103.8814685)",1.3142295,103.8814685
372,LEE MENG LIANG THERAPY,"430 Upper Changi Rd, #01-22 East Village Mall, East, Singapore 487048","(1.3318752, 103.9463585)",1.3318752,103.9463585
373,LEE THIM KAY,"5 Banda St, #02-80, Singapore 050005","(1.2812123, 103.8433842)",1.2812123,103.8433842
374,LEE YONG SENG CHINESE MEDICAL,"100 Eu Tong Sen St, #02-23 059812, Singapore 059812","(1.2818682, 103.8407372)",1.2818682,103.8407372
375,LEKANG TCM CLINIC,"45 Sims Dr, Block 45, Singapore 380045","(1.3174127, 103.8783863)",1.3174127,103.8783863
376,LI KAI WA CHINESE MEDICAL HALL,"Blk 761 Yishun Street 72, #01-362, Singapore 760761","(1.4251259, 103.8332645)",1.4251259,103.8332645
377,LI LIAN XING CHINESE PHYSICIAN & TRADITIONAL MEDICAL HALL,"190 Middle Rd, #02 - 30, Singapore 188979","(1.3005243, 103.8521508)",1.3005243,103.8521508
378,LI LIN TCM CLINIC LLP,"163 Ang Mo Kio Ave 4, #01-422 Mayflower Shopping & Food Centre, Singapore 560163","(1.3738492, 103.8381131)",1.3738492,103.8381131
379,LI XIN MEDICAL & ACUPUNCTURE CENTRE,"163 Ang Mo Kio Ave 4, #01-404 Mayflower Shopping & Food Centre, Singapore 560163","(1.373833, 103.8385999)",1.373833,103.8385999
380,LI XIN TANG TCM CENTRE,"1 Tanjong Pagar Plz, #02-08, Singapore 082001","(1.2755841, 103.8424828)",1.2755841,103.8424828
381,LI YE CHINESE MEDICAL HALL,"233 Yishun Street 21, Singapore 760233","(1.4347877, 103.8382376)",1.4347877,103.8382376
382,LIAN CHENG CHINESE MEDICAL HALL,"207 Bukit Batok Street 21, #01-106, Singapore 650207","(1.3462541, 103.7493629)",1.3462541,103.7493629
383,LIANG YI HEALTH TECHNOLOGY PTE LTD,Singapore,"(1.352083, 103.819836)",1.352083,103.819836
384,LIANGWEI TCM MEDICAL,"131 MARSILING RISE, #01-198, Singapore 730131","(1.4384759, 103.7785906)",1.4384759,103.7785906
385,LIANGYI TCM,"112 East Coast Road, 428802 Singapore","(1.3054495, 103.9046641)",1.3054495,103.9046641
386,LICON CHINESE PHYSICIAN SERVICE CENTRE,"50 E Coast Rd, Singapore 428769","(1.303884, 103.9043973)",1.303884,103.9043973
387,LIEW CHINESE PHYSICIAN DISPENSERY,"#01-406, 163 Ang Mo Kio Avenue 4 (S)560163, Singapore 560163","(1.3736715, 103.8382467)",1.3736715,103.8382467
388,LIFE ACUPUNCTURE & MEDICAL PTE LTD,"5 Banda St, #02-84, Singapore 050005","(1.281201, 103.843403)",1.281201,103.843403
389,LIFE TCM & WELLNESS CENTRE,"76 Bras Basah Rd, #05-02 Carlton Hotel Singapore, Singapore 189558","(1.2959543, 103.8528188)",1.2959543,103.8528188
390,LIFESPRING TCM CLINIC,"354 Clementi Ave 2, Singapore 120354","(1.3135272, 103.7708724)",1.3135272,103.7708724
391,LIM KONG BENG CHINESE PHYSICIAN,"265 Bukit Batok East Ave 4, #01-399, Singapore 650265","(1.3500846, 103.7599408)",1.3500846,103.7599408
392,LIM KWAN HOW CHINESE PHYSICIAN,Singapore,"(1.352083, 103.819836)",1.352083,103.819836
393,LIM NGEE HUAT CHINESE PHYSICIAN & ACUPUNCTURE THERAPY CENTRE,"231 Upper Thomson Rd, Singapore 574362","(1.3529259, 103.834341)",1.3529259,103.834341
394,LIM YUXIN CHINESE PHYSICIAN,Singapore,"(1.352083, 103.819836)",1.352083,103.819836
395,LIN XI CHINESE PHYSICIAN AND ACUPUNCTURE,Singapore,"(1.352083, 103.819836)",1.352083,103.819836
396,LIN YIN CHINESE MEDICAL THERAPHY,Singapore,"(1.352083, 103.819836)",1.352083,103.819836
397,LING LAN CHINESE PHYSICIAN & ACUPUNCTURIST,"148 Lor 1 Toa Payoh, Block 148 Block 148, Singapore 310148","(1.3347074, 103.8438599)",1.3347074,103.8438599
398,LIT SING MEDICAL & ACUPUNCTURE CLINIC,"526 Ang Mo Kio Ave 10, #01-2409 Cheng San Centre, Singapore 560526","(1.3730872, 103.8540919)",1.3730872,103.8540919
399,LIVING POINT FOUNDATION,Singapore,"(1.352083, 103.819836)",1.352083,103.819836
400,LO'S TCM CLINIC PTE LTD,Singapore,"(1.352083, 103.819836)",1.352083,103.819836
401,LONG CHANG TRADITIONAL CHINESE MEDICINE,"Woodlands Street 32, #01 - 115A Block 326, Singapore 730326","(1.4309653, 103.7801462)",1.4309653,103.7801462
402,LONG CHENG CHINESE MEDICAL HALL,"51 Chin Swee Rd, #01-79, Singapore 160051","(1.2874037, 103.8418222)",1.2874037,103.8418222
403,LONG KANG TCM MEDICAL PTE LTD,"104 Jurong E St 13, Singapore 600104","(1.3366371, 103.7376509)",1.3366371,103.7376509
404,LONG LIFE TCM HALL LLP,"50 E Coast Rd, #02-24 Roxy Square, Singapore 428769","(1.3039489, 103.9043436)",1.3039489,103.9043436
405,LONG ZHONG TANG TCM PTE LTD,"Blk 333 Kreta Ayer Rd, #01-27, Singapore 080333","(1.2805458, 103.8425682)",1.2805458,103.8425682
406,LOO FEI SING,Singapore,"(1.352083, 103.819836)",1.352083,103.819836
407,LOUIS ACUPUNCTURE & TCM HEALTH CARE,Singapore,"(1.352083, 103.819836)",1.352083,103.819836
408,LOUIS NG SUI MENG,Singapore,"(1.352083, 103.819836)",1.352083,103.819836
409,LOW KEE CHEONG,Singapore,"(1.352083, 103.819836)",1.352083,103.819836
410,LUO XU CHINESE TRADITIONAL MEDICINE,Singapore,"(1.352083, 103.819836)",1.352083,103.819836
411,MA KUANG CHINESE MEDICINE,Singapore,"(1.352083, 103.819836)",1.352083,103.819836
412,MACPHERSON TCM & WELLNESS CLINIC,"81 MacPherson Ln, #01-33, Singapore 360081","(1.332224, 103.886307)",1.332224,103.886307
413,MDM TCM WELLNESS CENTRE,Singapore,"(1.352083, 103.819836)",1.352083,103.819836
414,MEI YAN E SHENG PTE LTD,"11 Tanjong Katong Rd, B1-16, Singapore 437157","(1.314848, 103.8949264)",1.314848,103.8949264
415,MEISEIDO CHINESE MEDICAL TREATMENT,"545 Orchard Road #04-24 Far East Shopping Centre, Singapore 238882","(1.305512, 103.8300944)",1.305512,103.8300944
416,MENG SIANG CHINESE PHYSICIAN ACUPUNTURE SERVICES,"740 Bedok Reservoir Rd, Singapore 470740","(1.3383014, 103.9225237)",1.3383014,103.9225237
417,MENG TCM WELLNESS CENTRE,"133 New Bridge Rd, #14-06 Chinatown Point, Singapore 059413","(1.285362, 103.845021)",1.285362,103.845021
418,MIAO QUAN ACUPUNCTURIST & CHINESE PHYSICIAN,"36 Circuit Rd, Singapore 370036","(1.3291749, 103.886658)",1.3291749,103.886658
419,MIAO SHAN TCM CLINIC,"529 Ang Mo Kio Ave 10, Singapore 560529","(1.3725891, 103.8557637)",1.3725891,103.8557637
420,MIN ANN MEDICAL HALL,"Blk 252 Jurong East St 24, #01-111 Yuhua Village, Singapore 600252","(1.3435811, 103.7383569)",1.3435811,103.7383569
421,MIN HUI TCM HEALTHCARE CENTRE,"blk 87 Whampoa Dr, #01-873, Singapore","(1.3233035, 103.8557135)",1.3233035,103.8557135
422,MING CHUN TANG TCM CLINIC LLP,"Blk 631 Hougang Ave 8, #01-16, Singapore 530631","(1.3707359, 103.8813913)",1.3707359,103.8813913
423,MING CHUN TCM CLINIC,"118, #01-27 Commonwealth Cres, Singapore 140118","(1.3068209, 103.8007672)",1.3068209,103.8007672
424,MING DE TCM CLINIC,Singapore,"(1.352083, 103.819836)",1.352083,103.819836
425,MING YI TANG TCM CLINIC,"342 Jurong East Street 31, #02-03, Singapore 600342","(1.3461398, 103.7314308)",1.3461398,103.7314308
426,MINGRUI TCM CLINIC,"Ang Mo Kio Ave 5, #01-2659 Block 603, Singapore 560603","(1.3717963, 103.8477804)",1.3717963,103.8477804
427,MINGYANG CHINESE MEDICAL CENTRE,Singapore,"(1.352083, 103.819836)",1.352083,103.819836
428,MINH KANG MEDICARE SERVICES PTE LTD,"#02-22 Grandlink Square, 511 Guillemard Road, Singapore 399849","(1.3142609, 103.8914534)",1.3142609,103.8914534
429,MINKA HEALTHCARE PTE LTD,"644 Bukit Batok Central, #01-68, Singapore 650644","(1.3486175, 103.751807)",1.3486175,103.751807
430,MIU JONG MEDICAL HALL,"302 Ang Mo Kio Ave 3, Singapore 560302","(1.3669906, 103.8458097)",1.3669906,103.8458097
431,MOBILE CLINIC TCM MARANATHA,Singapore,"(1.352083, 103.819836)",1.352083,103.819836
432,MOMMY'S TCM PTE LTD,Singapore,"(1.352083, 103.819836)",1.352083,103.819836
433,MR LIM FOOT REFLEXOLOGY & HEALTHPLUS,"People's Park Complex, Singapore","(1.2841977, 103.8425488)",1.2841977,103.8425488
434,MULTIFLORA NOIBARA PTE LTD,"7030 Ang Mo Kio Ave 5, Singapore 569880","(1.3758877, 103.8556196)",1.3758877,103.8556196
435,MY FATHER'S FEET KOVAN PTE LTD,"6 Yio Chu Kang Road, ICB Shopping Centre, Singapore 545521","(1.3546245, 103.877831)",1.3546245,103.877831
436,MY FIRST TCM CLINIC PTE LTD,"435 Orchard Rd, #17-05 Wisma Atria Office Tower, Singapore 238877","(1.3037169, 103.8336304)",1.3037169,103.8336304
437,NAM HONG WELFARE SERVICE SOCIETY,"111 Yishun Ring Rd, Blk 01-375, S760111 760111","(1.4332366, 103.8285461)",1.4332366,103.8285461
438,NAM HUA ACUPUNCTURE & MEDICAL HALL,"915 Tampines Street 91, Singapore 520915","(1.3486079, 103.9395057)",1.3486079,103.9395057
439,NAM HUA MEDICAL HALL,"56 New Upper Changi Rd, #01-1328, Singapore 461056","(1.3250611, 103.94135)",1.3250611,103.94135
440,NAM WAH PAI TRADITIONAL CHINESE PHYSICIAN CENTRES,"123 Yishun Street 11, #01-499 Chong Pang View, Singapore 760123","(1.4347108, 103.8318685)",1.4347108,103.8318685
441,NAN HUA TRADITIONAL THERAPY CLINIC,"320 Clementi Ave 4, #01-23, Singapore 120320","(1.3170708, 103.7654405)",1.3170708,103.7654405
442,NAN YANG FAMILY TCM CLINIC,Singapore,"(1.352083, 103.819836)",1.352083,103.819836
443,NANYANG TCM CLINIC,"1 Jalan Anak Bukit, #02-21, Singapore 588996","(1.3385566, 103.7786133)",1.3385566,103.7786133
444,NATURAL CHINESE MEDICAL CENTRE,"403 Sin Ming Ave, Singapore 570403","(1.3628869, 103.8332744)",1.3628869,103.8332744
445,NATURAL HEALING,Singapore,"(1.352083, 103.819836)",1.352083,103.819836
446,NATURAL TCM CLINIC,"South Buona Vista Rd, Singapore","(1.286033, 103.7857311)",1.286033,103.7857311
447,NATURAL THERAPY SERVICES SINGAPORE,"100 Jln Sultan, Singapore 199001","(1.3032484, 103.8619363)",1.3032484,103.8619363
448,NEO TK TRADITIONAL CHINESE MEDICINE CLINIC,Singapore,"(1.352083, 103.819836)",1.352083,103.819836
449,NEW AGE CHINESE MEDICAL CENTRE,"683 Hougang Ave 8, #01-943, Singapore 530683","(1.3735779, 103.8861416)",1.3735779,103.8861416
450,NEW CENTURY HEALTHCARE PTE LTD,"66 Kallang Bahru, Block 66, Singapore 330066","(1.320343, 103.8694529)",1.320343,103.8694529
451,NEW LIFE (TCM),"463 Jurong West Street 41, #01-556, Singapore 640463","(1.3504532, 103.7234842)",1.3504532,103.7234842
452,NEXUS TCM,"160 Owen Rd, Singapore 218953","(1.3147756, 103.8523411)",1.3147756,103.8523411
453,NG'S CHINESE MEDICAL HALL,Singapore,"(1.352083, 103.819836)",1.352083,103.819836
454,NGEE ANN TRADITIONAL CHINESE MEDICINE CENTRE,"33 Bedok South Ave 2, Singapore 460033","(1.3229497, 103.9396039)",1.3229497,103.9396039
455,NHL BEYOND CLINIC PTE LTD,Singapore,"(1.352083, 103.819836)",1.352083,103.819836
456,NINE FORTUNE TCM CLINIC,"133 Jalan Bukit Merah, Block 133, Singapore 160133","(1.2796169, 103.8272869)",1.2796169,103.8272869
457,NING KANG TCM CLINIC,"01-131 Clementi Ave 2, Block 352, Singapore 120352","(1.3146209, 103.7715967)",1.3146209,103.7715967
459,NOVAHEALTH TCM CLINIC,"1 Raffles Pl, #05 - 17, Singapore 048616","(1.2839887, 103.8511918)",1.2839887,103.8511918
460,NSP TCM ACUPUNCTURE CLINIC,"211 Hougang St 21, #01-315, Singapore 530211","(1.3596782, 103.8877112)",1.3596782,103.8877112
461,NTU CHINESE MEDICINE CLINIC,"60 Nanyang Dr, Nanyang Technological University, School of Biological Sciences, Singapore 637551","(1.3446342, 103.6789518)",1.3446342,103.6789518
462,NUH ACUPUNCTURE CLINIC,"5 Lower Kent Ridge Rd, Singapore 119074","(1.2946909, 103.7832309)",1.2946909,103.7832309
463,OAK HEALTH CHINESE MEDICINE,Singapore,"(1.352083, 103.819836)",1.352083,103.819836
464,OC TCM HEALTHCARE CENTRE,"211 Holland Ave, #02-39 Holland Road Shopping Centre, Singapore 278967","(1.3106807, 103.7955904)",1.3106807,103.7955904
465,OE TCM CLINIC,Singapore,"(1.352083, 103.819836)",1.352083,103.819836
466,OH YOKE ENG TCM PHYSCIAN,Singapore,"(1.352083, 103.819836)",1.352083,103.819836
467,OKRA WELLNESS TCM CLINIC,"5 Coleman St, #02-27, Singapore 179805","(1.2920489, 103.8501425)",1.2920489,103.8501425
468,ONE BEAUTY SEED PTE LTD,"#02-156 Upper Cross St, Block 34, Singapore 050034","(1.2861551, 103.8422545)",1.2861551,103.8422545
469,ONG AH LEE TCM CLINIC,"728 Ang Mo Kio Ave 6, Singapore 560728","(1.3727031, 103.8456739)",1.3727031,103.8456739
470,ONG FUJIAN CHINESE PHYSICIAN,"259 Joo Chiat Rd, Singapore 427513","(1.3105698, 103.9016686)",1.3105698,103.9016686
471,ONG WEE LING (CHINESE PHYSICIAN AND ACUPUNCTURIST),Singapore,"(1.352083, 103.819836)",1.352083,103.819836
472,ONG'S TONIC & MEDICAL CENTRE,"107 Jalan Bukit Merah, #01-1842, Singapore 160107","(1.2798888, 103.8247528)",1.2798888,103.8247528
473,ORIENT CARE TCM CLINIC,"72 Circuit Rd, #01-11, Singapore 370072","(1.3245025, 103.8878934)",1.3245025,103.8878934
474,ORIENT DE WELLNESS GALLERY,Singapore 428769,"(1.304351, 103.904048)",1.304351,103.904048
475,ORIENTAL MEDICAL HALL PTE LTD,"Hougang Ave 5, #01-180 Block 327, Singapore 530327","(1.367378, 103.8963229)",1.367378,103.8963229
476,ORIENTAL REMEDIES GROUP,"171 E Coast Rd, #01-04/05/06, Singapore 428877","(1.3067682, 103.9058348)",1.3067682,103.9058348
477,ORIENTAL THERAPY PTE LTD,"354 Alexandra Rd, #01-16 Alexis on, Singapore 159948","(1.2910581, 103.807271)",1.2910581,103.807271
478,P J ART & CRAFT / ACUPUNCTURE CENTRE,"163 Bukit Merah Central, #03-3561, Singapore 150163","(1.2836661, 103.8169734)",1.2836661,103.8169734
479,PANG FONG CHIN TCM & ACUPUNCTURE CENTRE,"Whampoa Dr, #01-326 Block 74, Singapore 320074","(1.3235894, 103.8565101)",1.3235894,103.8565101
480,PEOPLE TCM CLINIC LLP,"50 E Coast Rd, #01-101 Roxy Square 1, Singapore 428769","(1.3032385, 103.9048732)",1.3032385,103.9048732
481,PHOENIX TCM,Singapore,"(1.352083, 103.819836)",1.352083,103.819836
482,PHYSICIAN CHEW TCM CLINIC,"809 French Rd, #02-54 Kitchener Complex, Singapore 200809","(1.3083787, 103.8620771)",1.3083787,103.8620771
483,PHYSICIAN TEOW AH HUA,Singapore,"(1.352083, 103.819836)",1.352083,103.819836
484,PINEWELL CHINESE MEDICINE,"360 Orchard Rd, #05-01B International Building, Singapore 238869","(1.3061653, 103.8310002)",1.3061653,103.8310002
485,PING MIN MEDICAL HALL,"4 Sago Ln, #01-123, Singapore 050004","(1.282064, 103.842536)",1.282064,103.842536
486,PINGWAH CHINESE PHYSICIAN & MEDICAL HALL,"255 Tanjong Katong Rd, Beng Tong Mansion, Singapore 437043","(1.3082388, 103.8953016)",1.3082388,103.8953016
487,POH ONN TONG CHINESE PHYSICIAN,Singapore,"(1.352083, 103.819836)",1.352083,103.819836
488,PRANA TCM WELLNESS,"486 Jurong West Ave 1, Block 486, Singapore 640486","(1.3487136, 103.7265219)",1.3487136,103.7265219
489,PREVENTION + CURE TCM,"302 Ang Mo Kio Ave 3, Singapore 560302","(1.3669906, 103.8458097)",1.3669906,103.8458097
490,PROCELL BIOMED PTE LTD,"14 Upper Cross St, Singapore 058330","(1.2838861, 103.8455131)",1.2838861,103.8455131
491,PU JI CHINESE MEDICAL HALL,"304 Serangoon Ave 2, Singapore 550304","(1.3538702, 103.867706)",1.3538702,103.867706
492,PUBLIC FREE CLINIC SOCIETY,"10 Lor 9 Geylang, Singapore 388758","(1.312794, 103.8765539)",1.312794,103.8765539
493,PULSE TCM,"501 Orchard Rd, #03-04, Singapore 238880","(1.3047222, 103.8307058)",1.3047222,103.8307058
494,PURE ORIGIN TCM PTE LTD,"11 Tanjong Katong Rd, #01-59 Kinex, Singapore 437157","(1.3144998, 103.8950624)",1.3144998,103.8950624
495,PURE WELLNESS TCM HALL,"3 Queen's Rd, #02-163 Block 3, s 260003","(1.3182997, 103.8079853)",1.3182997,103.8079853
496,QI EN TANG TCM CLINIC,"823 Tampines Street 81, #01-180, Singapore 520823","(1.3484443, 103.9339987)",1.3484443,103.9339987
497,QI FANG CHINESE PHYSICIAN & ACUP. CTR,"14 Scotts Rd, #03-13, Singapore 228213","(1.3073044, 103.8333325)",1.3073044,103.8333325
498,QI LIN TCM CLINIC,"101 Upper Cross St, B1-19 People's Park Centre, Singapore 058357","(1.285631, 103.8440929)",1.285631,103.8440929
499,QI TCM CLINIC,Singapore,"(1.352083, 103.819836)",1.352083,103.819836
500,QIAN JIN TCM PTE LTD,"Elias Rd, Singapore 518000","(1.352083, 103.819836)",1.352083,103.819836
501,QIANHE TCM HEALTHCARE,"1 Coleman St, #03-19 The Adelphi, Singapore 179803","(1.2911845, 103.8512167)",1.2911845,103.8512167
502,QIN AILI TCM PTE LTD,Singapore,"(1.352083, 103.819836)",1.352083,103.819836
503,QING YUAN TCM CLINIC,"Block 234 Lor 8 Toa Payoh, #01-292, Singapore 310234","(1.3385807, 103.8579902)",1.3385807,103.8579902
504,QUAN ANN HEALTH-CARE & ACUPUNCTURE CENTRE,"Far East Plaza, 14 Scotts Road, #03-56, Singapore 228213","(1.3070854, 103.8333034)",1.3070854,103.8333034
505,QUAN HING BEAUTY & FOOT REFLEXOLOGY CENTRE,"149 Rochor Rd, #02-05, Singapore 188425","(1.3017128, 103.8546024)",1.3017128,103.8546024
506,QUN JIAN MEDICAL HALL,"BLK 517 , Suite 01, 85 Jurong West Street 52, Singapore 640517","(1.3456775, 103.7194616)",1.3456775,103.7194616
507,RAFFLES CHINESE MEDICINE,"585 North Bridge Rd, #02-00 Raffles Hospital, Singapore 188770","(1.3010964, 103.8571478)",1.3010964,103.8571478
508,RAPHA TCM CLINIC,"580 Geylang Road Paya Lebar MRT Exit B (bus no 137, alight at 2nd bus stop Bus No: 2, 13, 21, 26, 40, 51, 67, 137, 853C Main road (between Lor 32 & 34). By appointment, Singapore 389520","(23.2269076, 77.4091426)",23.2269076,77.4091426
509,REAL HEALTH CENTRAL (NOVENA),"8 Sinaran Dr, #05-15, Singapore 307470","(1.3200182, 103.8447218)",1.3200182,103.8447218
510,REAL HEALTH CENTRAL (TANJONG PAGAR),"Tanjong Pagar, Singapore","(1.2780299, 103.8404472)",1.2780299,103.8404472
511,REAL HEALTH MEDICAL,"8 Sinaran Dr, #05-15, Singapore 307470","(1.3200182, 103.8447218)",1.3200182,103.8447218
512,REALM OF TRANQUILITY NEIGHBOURHOOD TCM CLINIC,"547,#01-177 WOODLANDS DRIVE 16, 547 Woodlands Drive 16, Block 547, Singapore 730547","(1.4302986, 103.7930292)",1.4302986,103.7930292
513,REBORN TCM CLINIC,"513 Yishun St 51, Singapore 760513","(1.4159999, 103.8441793)",1.4159999,103.8441793
514,RED SWASTIKA WELFARE CLINIC,Singapore,"(1.352083, 103.819836)",1.352083,103.819836
515,REDEFINE PERFECTION PTE LTD,"310 Orchard Rd, #04-01, Redefine Perfection by Pulse, Tang Plaza, Singapore 238864","(1.3047955, 103.8329225)",1.3047955,103.8329225
516,REFRESH GROUP,"20 Cecil St, Singapore 049705","(1.282984, 103.8505203)",1.282984,103.8505203
517,REFRESH TCM WELLNESS,"68 Orchard Rd, #03-47/48, Plaza, Singapore 238839","(1.3007111, 103.844904)",1.3007111,103.844904
518,REGIS MEDICAL,"255 Holland Ave, Singapore 278983","(1.311422, 103.7955112)",1.311422,103.7955112
520,RELAXING POINT,Singapore,"(1.352083, 103.819836)",1.352083,103.819836
521,REN AI CHINESE PHYSICIAN,"742 Bedok Reservoir Rd, #01-3113, Singapore 470742","(1.3380527, 103.9219724)",1.3380527,103.9219724
522,REN FANG CHINESE MEDICAL HALL,"635 Ang Mo Kio Ave 6, Singapore 560635","(1.3807968, 103.8422566)",1.3807968,103.8422566
524,REN SHAN TCM ACUPUNCTURE CLINIC,Singapore,"(1.352083, 103.819836)",1.352083,103.819836
525,REN SHOU TCM PTE LTD.,"Lavender St., #147, Singapore 338742","(1.3123505, 103.8614704)",1.3123505,103.8614704
526,REN TAI TCM MEDICAL,"Block 131 Jalan Bukit Merah, #01-1571, Singapore 160131","(1.2801209, 103.8283161)",1.2801209,103.8283161
527,REN TE TUINA,Singapore,"(1.352083, 103.819836)",1.352083,103.819836
528,REN XIN TANG TCM,Singapore,"(1.352083, 103.819836)",1.352083,103.819836
529,REN XIN TCM CLINIC PTE LTD,"20 Eastwood Rd, #01-15, Singapore 486442","(1.3215107, 103.9553391)",1.3215107,103.9553391
530,REN XIN TCM PHYSICIAN ACUPUNCTURE & MEDICAL CLINIC,"803 King George's Ave, #01-196, Singapore 200803","(1.3085119, 103.8612217)",1.3085119,103.8612217
531,RENDA HEALTHCARE PRIVATE LIMITED,Singapore,"(1.352083, 103.819836)",1.352083,103.819836
532,RENREN TCM WELLNESS CLINIC,"105 Canberra St, #01-10, Singapore 750105","(1.4490256, 103.832113)",1.4490256,103.832113
533,RENYI TANG INTEGRATED HEALTH PTE LTD,"Jurong East Ave 1, #01-1211 Block 349, Singapore 600349","(1.3441277, 103.7347086)",1.3441277,103.7347086
534,REV. WONG CHINESE PHYSICIAN AND ACUPUNCTURE,"People's Park Complex #04-32, 1 Park Road (S)059108, Singapore 059108","(1.2841943, 103.842554)",1.2841943,103.842554
535,REVERENT HEALTH RECUPERATIC CENTRE,Singapore,"(1.352083, 103.819836)",1.352083,103.819836
536,RI AN TCM CLINIC,"63 Kallang Bahru, #01-427, Singapore 330063","(1.321119, 103.8685337)",1.321119,103.8685337
537,RI YUE TCM CLINIC,"156 Yishun Street 11, Singapore 760156","(1.4319472, 103.8336268)",1.4319472,103.8336268
538,RICHLIFE CHINESE MEDICAL SERVICES CENTRE,"810 Hougang Central, #01-222, Singapore 530810","(1.3715423, 103.8933293)",1.3715423,103.8933293
539,RONG JAI CHINESE MEDICAL CENTRE,Singapore,"(1.352083, 103.819836)",1.352083,103.819836
540,RONG SHAN TCM THERAPHY PTE LTD,Singapore,"(1.352083, 103.819836)",1.352083,103.819836
541,RONG SHENG TRADITIONAL PHYSICIAN CENTER,"253 Choa Chu Kang Ave 1, Singapore 680253","(1.3774405, 103.744394)",1.3774405,103.744394
542,RONG TAI CHINESE MEDICAL CENTRE,"761 Yishun Street 72, Singapore 760761","(1.4251259, 103.8332645)",1.4251259,103.8332645
543,ROYAL CHINESE MEDICINE,Singapore,"(1.352083, 103.819836)",1.352083,103.819836
544,ROYAL TCM CENTRE,"135 Jurong Gateway Rd, #02-327, Singapore 600135","(1.3337726, 103.7395834)",1.3337726,103.7395834
546,RUI HE TCM THERAPY CENTRE,"Blk 532 Ang Mo Kio Ave 10, #01-2479, Singapore 560532","(1.3737331, 103.8546127)",1.3737331,103.8546127
547,S E A KANG MING CHINESE PHYSICIANS,"#03-109 Hong Lim Complex, 531 Upper Cross St, Singapore 050531","(1.2839893, 103.8458439)",1.2839893,103.8458439
548,S K LIM CHINESE PHYSICIAN & ACUPUNCTURIST,"78B Telok Blangah Street 32, #01-26, Singapore 102078","(1.2735796, 103.808086)",1.2735796,103.808086
549,S K MEDICARE THERAPY CENTRE,"400 Orchard Rd, #03-24 Orchard Towers, Singapore 238875","(1.3069439, 103.8291434)",1.3069439,103.8291434
550,SAGEMO TCM CLINIC,"30 Bendemeer Rd, #01-889, Singapore 330030","(1.3194649, 103.8641203)",1.3194649,103.8641203
551,SAI HUI TIAN TCM CLINIC LLP,Singapore,"(1.352083, 103.819836)",1.352083,103.819836
552,SAKURA BEAUTY TCM PTE LTD,Singapore,"(1.352083, 103.819836)",1.352083,103.819836
553,SALON ONE 3 BEAUTY SALON PTE LTD,"704 Ang Mo Kio Ave 8, #01-2547, Singapore 560704","(1.3709294, 103.8480742)",1.3709294,103.8480742
554,SAN SHU & FAMILY MEDICAL HALL CUM TRADING (TCM),"124 Hougang Ave 1, #01-1440, Singapore 530124","(1.3529158, 103.8867252)",1.3529158,103.8867252
555,SAN TAO TCM PHYSICIAN WONG CLINIC,"380 Changi Rd, Singapore 419832","(1.3184307, 103.9106047)",1.3184307,103.9106047
556,SAN TCM CLINIC LLP,"35 Selegie Rd, #03-25 Parklane Shopping Mall, Singapore 188307","(1.300661, 103.8493367)",1.300661,103.8493367
557,SANTE WELLNESS TCM,"Hougang Ave 1, #01-1344 Block 121, Singapore 530121","(1.3544184, 103.889824)",1.3544184,103.889824
558,SCIENCE ARTS CO PTE LTD,"150 MacPherson Rd, Level 1 Science Arts Building, Singapore 348524","(1.3290993, 103.873516)",1.3290993,103.873516
559,SEKAI TCM,"27 Foch Rd, #01-06 Hoa Nam Building, Singapore 209264","(1.3126996, 103.8599433)",1.3126996,103.8599433
560,SENG HWA ACUPUNCTURE & CHINESE MEDICAL CENTRE,"117 Bedok Reservoir Rd, Singapore 470117","(1.3314046, 103.9087348)",1.3314046,103.9087348
561,SENG LENG CHINESE PHYSICIAN,"45 Sims Dr, Singapore 380045","(1.3174127, 103.8783863)",1.3174127,103.8783863
562,SENGKANG HOSPITAL TCM,"Sengkang, Singapore","(1.3868121, 103.8914433)",1.3868121,103.8914433
563,SENNENDO MEDICAL HALL,Singapore,"(1.352083, 103.819836)",1.352083,103.819836
564,SG TIT TAR PTE LTD,"70 Shenton Wy, #15-06/07 Eon Shenton, Singapore 079118","(1.2739069, 103.846216)",1.2739069,103.846216
565,SHANDONG TRADITIONAL CHINESE MEDICINE,"134 Jurong Gateway Rd, #04-309F, Singapore 600134","(1.3339717, 103.7388197)",1.3339717,103.7388197
566,SHANG TCM PTE LTD,"212 Hougang St 21, #01-325, Singapore 530212","(1.3594091, 103.888092)",1.3594091,103.888092
567,SHANGHAI CHINESE MEDICINE CENTRE,Singapore,"(1.352083, 103.819836)",1.352083,103.819836
568,SHANGHAI TCM WELLNESS,Singapore,"(1.352083, 103.819836)",1.352083,103.819836
569,SHANGRILA TCM WELLNESS CLINIC LLP,"1 Coleman St, Singapore 179803","(1.2913131, 103.8512472)",1.2913131,103.8512472
570,SHAW FONG CHINESE MEDICAL & ACUPUNCTURE HALL,"8 Selegie Rd, Singapore 180008","(1.3030749, 103.8505429)",1.3030749,103.8505429
571,SHEN NONG TCM LLP,"39 Carpenter St, #02-01, Singapore 059918","(1.2879119, 103.8478544)",1.2879119,103.8478544
572,SHENG HUA CHINESE MEDICAL CLINIC,Singapore,"(1.352083, 103.819836)",1.352083,103.819836
573,SHENZHOU CHINESE PHYSICIAN CLINIC,"252 Jurong East St 24, Singapore 600252","(1.3430725, 103.7381938)",1.3430725,103.7381938
574,SHI KANG ACUPUNCTURE & CHINESE PHYSICIAN,"Blk 55 Chai Chee Dr, #01-178, Singapore 460055","(1.3271729, 103.9193384)",1.3271729,103.9193384
575,SHINN SHYANG MEDICAL CO,"149 Rochor Rd, Singapore 188425","(1.3013888, 103.8545062)",1.3013888,103.8545062
576,SHUANGYIN CHINESE MEDICAL CENTRE,"269B Queen St, #02-244 Opposite Guanyin temple, Singapore 180269","(1.300154, 103.8538166)",1.300154,103.8538166
577,SI EN TCM MEDICAL CLINIC PTE LTD,"433 Clementi Ave 3, #01-264, Singapore 120433","(1.3140422, 103.76199)",1.3140422,103.76199
578,SI MEI TRADITIONAL CHINESE MEDICINE & TUINA CENTRE,"122 Ang Mo Kio Ave 3, #01-1761, Singapore 560122","(1.3702265, 103.8432282)",1.3702265,103.8432282
579,SIAH AH CHEOK CHINESE MEDICAL HALL,"371 Upper Paya Lebar Rd, Singapore 534969","(1.3481235, 103.8799876)",1.3481235,103.8799876
580,SIAH AH CHEOK CHINESE SINSEH,"371 Upper Paya Lebar Rd, Singapore 534969","(1.3481235, 103.8799876)",1.3481235,103.8799876
581,SIAN CHAY MEDICAL INSTITUTION,Singapore,"(1.352083, 103.819836)",1.352083,103.819836
582,SICHUAN CHINESE MEDICINE CENTRE,"451 Jurong West Street 42, Block 451, Singapore 640451","(1.3516414, 103.7181705)",1.3516414,103.7181705
583,SILK SPA TCM,"55 Jln Sultan, Singapore 198977","(1.3025317, 103.8615284)",1.3025317,103.8615284
584,SIMPSON TCM CLINIC,"1 Bukit Batok Central Link #03-17 West Mall, Singapore 658713","(1.3500111, 103.7492852)",1.3500111,103.7492852
585,SIN HWA ACUPUNCTURE CENTRE,"452 Ang Mo Kio Ave 10, Block 452 Block 452, Singapore 560452","(1.3688949, 103.856313)",1.3688949,103.856313
586,SIN KANG TCM CLINIC,"04 - 14, 100 AM, 100 Tras St, Singapore 079027","(1.2749931, 103.8435825)",1.2749931,103.8435825
587,SIN NAM MEDICAL HALL PTE LTD,"#01-101 Yishun Street 71, Block 729, Singapore 760729","(1.4259435, 103.8315436)",1.4259435,103.8315436
588,SIN RUI TCM CLINIC,"22 Yio Chu Kang Rd, Singapore 545535","(1.3553744, 103.8772068)",1.3553744,103.8772068
589,SIN-JONG TRADITIONAL MEDICAL & ACUPUNCTURE,"78 Circuit Rd, Singapore 370078","(1.3278896, 103.8852219)",1.3278896,103.8852219
590,SINCHONG,"311 New Upper Changi Rd, #B2-48 Bedok Mall, Singapore 467360","(1.324655, 103.92941)",1.324655,103.92941
591,SING WAH MEDICAL HALL TCM CLINIC,Singapore,"(1.352083, 103.819836)",1.352083,103.819836
592,SINGA CARE MEDICAL,"Veerasamy Rd, #02-119 Block 637, Singapore 200637","(1.3069042, 103.8557291)",1.3069042,103.8557291
593,SINGAPORE BUDDHIST FREE CLINIC,"48 Lor 23 Geylang, Singapore 388376","(1.3152791, 103.8811267)",1.3152791,103.8811267
594,SINGAPORE CHINESE PHYSICIAN ASSOCIATION,"640 Lor 4 Toa Payoh, Singapore 319522","(1.3322847, 103.8512463)",1.3322847,103.8512463
595,SINGAPORE CHUNG HWA MEDICAL INSTITUTION,"679 Woodlands Ave 6, Block 679, Singapore 730679","(1.4402882, 103.8020196)",1.4402882,103.8020196
596,SINGAPORE COLLEGE OF TRADITIONAL MEDICINE,"640 Lor 4 Toa Payoh, Singapore 319522","(1.3322847, 103.8512463)",1.3322847,103.8512463
597,SINGAPORE PAINCARE TCM WELLNESS,"6 Raffles Blvd, #03-134-136 Marina Square, Singapore 039594","(1.2912061, 103.8576768)",1.2912061,103.8576768
598,SINGAPORE THONG CHAI MEDICAL INSTITUTION,"50 Chin Swee Rd, Singapore 169874","(1.2876109, 103.8401485)",1.2876109,103.8401485
599,SINGYAN TANG CHINESE MEDICAL CLINIC,"809 French Rd, #02 39, Singapore 200809","(1.3084036, 103.8622518)",1.3084036,103.8622518
600,SINSEH BEY TCM,Singapore,"(1.352083, 103.819836)",1.352083,103.819836
601,SIUYUAN ENTERPRISES,"101 Upper Cross St, Singapore 058357","(1.2857619, 103.8439529)",1.2857619,103.8439529
602,SOMA CLINIC PTE LTD,Singapore,"(1.352083, 103.819836)",1.352083,103.819836
603,SONGLIN TCM HEALTHCARE,"1B Duxton Hill, Singapore 089587","(1.2794106, 103.8431489)",1.2794106,103.8431489
604,SOON WELLNESS TCM TREATMENT CENTRE,"Blk 118 Aljunied Ave 2, #01-132, Singapore 380118","(1.3201264, 103.8872513)",1.3201264,103.8872513
605,SOOTHING TCM MEDICAL TREATMENT,"154 Serangoon North Ave 1, Singapore 550154","(1.3697949, 103.8735377)",1.3697949,103.8735377
606,SOUPYHERBS TCM SERVICES,Singapore,"(1.352083, 103.819836)",1.352083,103.819836
607,SPECIALIST TRADITIONAL CHINESE MEDICINE CENTRE,"333 Kreta Ayer Rd, Singapore 080333","(1.2807407, 103.8432603)",1.2807407,103.8432603
608,SPRING HEAL SPA,"133 New Bridge Rd, #02-28 Chinatown Point, Singapore 059413","(1.2852093, 103.8447228)",1.2852093,103.8447228
609,SPRING LINK HEALTH TCM CLINC PTE LTD,Singapore,"(1.352083, 103.819836)",1.352083,103.819836
610,SPRING LINK HEALTH TCM CLINIC PTE LTD,"2 Upper Aljunied Ln, #01-09, Singapore 360002","(1.333991, 103.8789222)",1.333991,103.8789222
611,SPRING TRADITIONAL CHINESE MEDICINE,"Tampines Street 41, #01-98A Block 419, Singapore 520419","(1.3588314, 103.9489686)",1.3588314,103.9489686
612,SPRING TRADITIONAL CHINESE MEDICINE (TCM) CLINIC,"Tampines Street 41, #01-98A Block 419, Singapore 520419","(1.3588314, 103.9489686)",1.3588314,103.9489686
613,STREAM TCM CENTRE,Singapore,"(1.352083, 103.819836)",1.352083,103.819836
614,SUNDARDAS NATUROPATHIC CLINIC PTE LTD,"20 Sin Ming Ln, #06-55 Midview City, Singapore 573968","(1.3580261, 103.8333308)",1.3580261,103.8333308
616,SUWEN TCM PTE LTD,"610 Tampines North Dr. 1, #01-04 Tampines GreenWeave, Singapore 520610","(1.3645506, 103.9370095)",1.3645506,103.9370095
617,SYNERGY HEALTH & MEDICAL CENTRE,Singapore,"(1.352083, 103.819836)",1.352083,103.819836
618,TA SENG TRADITIONAL THERAPY CENTRE,Singapore,"(1.352083, 103.819836)",1.352083,103.819836
619,TABIB YUAN KUM CHOY,"4 Lor 7 Toa Payoh, Singapore 310004","(1.3391094, 103.8558209)",1.3391094,103.8558209
620,TAI CHANG CHINESE MEDICAL HALL,"Tampines Street 41, #01-102 Block 419, Singapore 520419","(1.3588314, 103.9489686)",1.3588314,103.9489686
621,TAI FOH SIONG MEDICAL HALL,"21 Jln Tiga, Singapore 390021","(1.3074573, 103.8845765)",1.3074573,103.8845765
622,TAI NING ACUPUNCTURE & CHINESE MEDICAL HALL,"258 Bukit Panjang Ring Rd, Singapore 670258","(1.3778944, 103.7731358)",1.3778944,103.7731358
623,TAIHE TCM CLINIC,"Block 177 Toa Payoh Central, #01-152, Singapore 310177","(1.3339182, 103.8490452)",1.3339182,103.8490452
624,TAII HE GU FANG,"1 Rochor Canal Rd, #02-88 Sim Lim Square, Singapore 188504","(1.3030433, 103.8529208)",1.3030433,103.8529208
625,TAIYI TANG TCM CENTRE PTE LTD,"111 Somerset Rd, #03-40 TripleOne Somerset, Singapore 238164","(1.3001685, 103.8372952)",1.3001685,103.8372952
626,TAMPINES CHINESE TEMPLE-NKF DIALYSIS CENTRE,"180 Pasir Ris Street 11, Block 180, Singapore 510180","(1.3640836, 103.9602506)",1.3640836,103.9602506
627,TAN CHING NGEE CHINESE PHYSICIAN,"Blk 21 Ghim Moh Rd, #01-153, Singapore 270021","(1.3101358, 103.7887666)",1.3101358,103.7887666
628,TAN CHONG SHIN CHINESE PHYSICIAN & ACUPUNCTURIST,"744 Bedok Reservoir Rd, #01-3059, Singapore 470744","(1.337615, 103.922056)",1.337615,103.922056
629,TAN EE BENG CHINESE MEDICINE HALL,"452 Ang Mo Kio Ave 10, #01-1791, Singapore 560452","(1.3688949, 103.856313)",1.3688949,103.856313
630,TAN KAN MING CHINESE MEDICAL CARE,"50 Kim Keat Rd, Singapore 328820","(1.3248871, 103.8536342)",1.3248871,103.8536342
631,TAN KOK CHUAN CHINESE PHYSICIAN AND ACUPUNCTURE CLINIC,"515 Bedok North Ave 2, #01-215, Singapore 460515","(1.3317941, 103.9300335)",1.3317941,103.9300335
632,TAN LIM CHINESE PHYSICIAN,"163 Bukit Merah Central, #03-3605, Singapore 150163","(1.2837537, 103.8170072)",1.2837537,103.8170072
633,TANG AI GEOK CHINESE PHYSICIAN & MEDICAL HALL,"Block 631 Bedok Reservoir Rd, #01-904, Singapore 470631","(1.3332172, 103.9148295)",1.3332172,103.9148295
634,TANG SHAN TCM HEALTHCARE PTE LTD,"112 East Coast Road, i12 Katong Mall, #03-22, Singapore 428802","(1.3052433, 103.9052341)",1.3052433,103.9052341
635,TANG TCM,"111 Somerset Rd, #03-40 TripleOne Somerset, Singapore 238164","(1.3001685, 103.8372952)",1.3001685,103.8372952
636,TANG YEOW LEONG,Singapore,"(1.352083, 103.819836)",1.352083,103.819836
637,TANGS CLINICAL CENTRE TCM PTE LTD,"05-01, 470 North Bridge Rd, Bugis Cube, Singapore 188735","(1.2981918, 103.8556572)",1.2981918,103.8556572
638,TAT FONG CHINESE MEDICAL HALL,Singapore,"(1.352083, 103.819836)",1.352083,103.819836
639,TCM @ NOVENA PTE LTD,"Novena, Singapore","(1.3208572, 103.8424319)",1.3208572,103.8424319
640,TCM CENTRE-KWONG WAI SHIU HOSPITAL,"705 Serangoon Rd, Singapore 328127","(1.317285, 103.8593269)",1.317285,103.8593269
641,TCM HANYI LLP,"Blk 116 #01-131, Commonwealth Cres, Singapore 140116","(1.3070705, 103.8000274)",1.3070705,103.8000274
642,TCM HEALTHCARE MEDICAL CENTRE LLP,"433 Clementi Ave 3, #01-252, Singapore 120433","(1.3140171, 103.7618194)",1.3140171,103.7618194
643,TCM LIVING WATERS,"275 Thomson Rd, #01-25 Novena Regency, Singapore 307645","(1.3213345, 103.8416283)",1.3213345,103.8416283
644,TCM SG PTE LTD,Singapore,"(1.352083, 103.819836)",1.352083,103.819836
645,TCM SPA CLINIC,"1 Changi Village Rd, Singapore 500001","(1.3885559, 103.9876144)",1.3885559,103.9876144
647,TCM-CHANGI GENERAL HOSPITAL,"2 Simei St 3, Singapore 529889","(1.3403879, 103.9493034)",1.3403879,103.9493034
648,TCM-KHOO TECK PUAT HOSPITAL,"90 Yishun Central, Singapore 768828","(1.4242972, 103.8385907)",1.4242972,103.8385907
649,TCM-NATIONAL UNIVERSITY HOSPITAL,Singapore,"(1.352083, 103.819836)",1.352083,103.819836
650,TCM-SINGAPORE GENERAL HOSPITAL,"Outram Rd, Singapore 169608","(1.2833414, 103.8359684)",1.2833414,103.8359684
651,TCM-TAN TOCK SENG HOSPITAL,"11 Jln Tan Tock Seng, Singapore 308433","(1.3210806, 103.8456848)",1.3210806,103.8456848
652,TEAM ACUPUNCTURE CENTRE,"38 Lor 23 Geylang, Singapore","(1.3142847, 103.8815)",1.3142847,103.8815
653,TECK CHUA MEDICAL HALL,"322 Hougang Ave 5, #01-84, Singapore 530322","(1.3670512, 103.8972259)",1.3670512,103.8972259
654,TECK GEE TRADITIONAL CHINESE MEDICAL ACUPUNCTURE CENTRE,"338 Ang Mo Kio Ave 1, Singapore 560338","(1.363547, 103.84855)",1.363547,103.84855
655,TECK JIN CHINESE MEDICINE SHOP,"Blk 150 Bishan St.11, #01-141, Singapore 570150","(1.344518, 103.855269)",1.344518,103.855269
656,TECK SENG CHINESE PHYSICIAN,"557 Jurong West Street 42, Block 557, Singapore 640557","(1.3539985, 103.7185563)",1.3539985,103.7185563
657,TECK SOON MEDICAL HALL PTE LTD,"281 South Bridge Rd, Singapore 058830","(1.2816821, 103.8452027)",1.2816821,103.8452027
658,TEO ACUPUNCTURE & MEDICAL HALL,"149 Rochor Rd, #04-01 Fu Lu Shou Complex, Singapore 188425","(1.3017027, 103.8544208)",1.3017027,103.8544208
659,TEO HONG BOO CHINESE PHYSICIAN PTE LTD,"249 Jurong East St 24, Singapore 600249","(1.3424505, 103.7393652)",1.3424505,103.7393652
660,THAI LYE CHINESE MEDICAL HALL,Singapore,"(1.352083, 103.819836)",1.352083,103.819836
661,THE RENHAI CLINIC,"27 Neil Rd, Singapore 088817","(1.2799778, 103.843237)",1.2799778,103.843237
662,THE SINGAPORE BUDDHIST LODGE CHINESE PHYSICIAN FREE CLINIC,"Lorong 17 Geylang, Singapore","(1.3140182, 103.8786008)",1.3140182,103.8786008
663,THE TCM FOLKS,Singapore,"(1.352083, 103.819836)",1.352083,103.819836
664,THE WAY TCM CLINIC,"Blk 3 Lor Lew Lian, #01-66, Singapore 531003","(1.3504833, 103.876115)",1.3504833,103.876115
665,THE WORLD MEDICAL HALL,"10 Selegie Rd, #01-44, Singapore 180010","(1.3037148, 103.8505656)",1.3037148,103.8505656
666,THIN WAH TONG MEDICAL & HEALTH FOOD PTE LTD,"57 Geylang Bahru, Singapore 330057","(1.3234434, 103.8690181)",1.3234434,103.8690181
667,THOMSON CHINESE MEDICINE,"1 Lower Kent Ridge Rd, #04-08/09 NUH Medical Centre - Zone B Lobby Car Drop Off Point, Singapore 119082","(1.2934298, 103.7845351)",1.2934298,103.7845351
668,THONG SENG TONG TRADITIONAL CHINESE MEDICINE SHOP,"515 Bedok North Avenue 2, Kaki Bukit Green, #01-199, Singapore 460515","(1.3318048, 103.9300607)",1.3318048,103.9300607
669,THONG TECK TONG MEDICAL HALL,"77 Circuit Rd, Singapore 370077","(1.3285954, 103.8853804)",1.3285954,103.8853804
670,THOO CHEE CHINESE PHYSICIAN & ACUPUNTURE,"106 Yishun Ring Rd, Singapore 760106","(1.4260651, 103.8321027)",1.4260651,103.8321027
671,THUM CHING KUAN,Singapore,"(1.352083, 103.819836)",1.352083,103.819836
672,THYE HUA KWAN TCM MEDICAL CENTRE,"17 Ang Mo Kio Ave 9, Thye Hua Kwan Hospital, Singapore 569766","(1.3840473, 103.8402458)",1.3840473,103.8402458
673,TIAN FU TANG TCM CLINIC,Singapore,"(1.352083, 103.819836)",1.352083,103.819836
674,TIAN REN SEN CHINESE PHYSICIAN,"731 Geylang Rd, Singapore 389642","(1.3148509, 103.8903606)",1.3148509,103.8903606
675,TIAN XING JIAN TCM CLINIC,"Block 45 Bendemeer Rd, #01-1447, Singapore 330045","(1.3223895, 103.8661598)",1.3223895,103.8661598
676,TIAN YI TANG PTE LTD,Singapore,"(1.352083, 103.819836)",1.352083,103.819836
677,TIANFUGONG TCM CLINIC PTE LTD,Singapore,"(1.352083, 103.819836)",1.352083,103.819836
678,TIANJIN CHINESE PHYSICIAN & TREATMENT CENTRE,"34 Jln. Bukit Ho Swee, Singapore 160034","(1.2881222, 103.827015)",1.2881222,103.827015
679,TIANYOU TRADITION CHINESE MEDICAL CLINIC PTE LTD,Singapore,"(1.352083, 103.819836)",1.352083,103.819836
680,TIME ENTERPRISE,"1 Rochor Rd, Singapore 180001","(1.3024881, 103.8546966)",1.3024881,103.8546966
681,TIME TRADITIONAL CHINESE MEDICAL ACUPUNCTURE CENTRE,"Blk 211 Serangoon Ave 4, #01-02, Singapore 550211","(1.356755, 103.873611)",1.356755,103.873611
682,TING FONG TCM CLINIC,"32A Chai Chee Ave, #01-204, Singapore 462032","(1.323415, 103.924679)",1.323415,103.924679
683,TING HOLISTIC CONCEPTS PTE LTD,Singapore,"(1.352083, 103.819836)",1.352083,103.819836
684,TOH & YIP TCM & PHYSIOTHERAPY,"Blk 4 Sago Ln, #02-125, Singapore 050004","(1.2817753, 103.8429707)",1.2817753,103.8429707
685,TONG AN TANG TCM CLINIC PTE LTD,"Choa Chu Kang Avenue 3 #01-30C Sunshine Place, 475 Choa Chu Kang Ave 3, #01-30C, Singapore 680475","(1.3780266, 103.7389881)",1.3780266,103.7389881
686,TONG DE TANG CAN RONG ZHONG XIN,"735 Pasir Ris Street 72, #01-306 West Plaza, Singapore 510735","(1.3797473, 103.9363331)",1.3797473,103.9363331
687,TONG FU TANG TCM PTE LTD,Singapore,"(1.352083, 103.819836)",1.352083,103.819836
688,TONG JUM CHEW PTE LTD,"21 Kaki Bukit View, Tech Park II, Singapore 415957","(1.3355709, 103.9084528)",1.3355709,103.9084528
689,TONG KEOW MEDICAL HALL,"HDB Toa Payoh #01-333, 70 Lorong 4 Toa Payoh (S)310070, Singapore 310070","(1.3346601, 103.8522881)",1.3346601,103.8522881
690,TONG XIN TANG TCM CLINIC LLP,"441 Pasir Ris Drive 6, Singapore 510441","(1.369294, 103.9581734)",1.369294,103.9581734
691,TRAUMATIC CHINESE PHYSICIAN THERAPY CENTRE,"717 Yishun Street 71, Singapore 760717","(1.4260319, 103.8282218)",1.4260319,103.8282218
692,TREASURE LIFE CHINESE MEDICAL FIRM LLP,"55 Changi Rd, #02-13, Singapore 419709","(1.316914, 103.899011)",1.316914,103.899011
693,TREASURE TREE PTE LTD,"56 Tanglin Rd, Singapore 247964","(1.3056217, 103.82294)",1.3056217,103.82294
694,TRIPLE-HARMONY TCM MEDICAL CENTRE,"474 Tampines Street 43, Singapore 520474","(1.3598407, 103.9527077)",1.3598407,103.9527077
695,TRIWELL TCM THERAPY,"710A Ang Mo Kio Ave 8, #8, Singapore 561710","(1.3706747, 103.8479839)",1.3706747,103.8479839
696,TSJ ACUMEDIC HALL,Singapore,"(1.352083, 103.819836)",1.352083,103.819836
697,TUNG FOOK MEDICAL HALL,"#01-37 Hong Lim Complex, 531 Upper Cross St, Singapore 050531","(1.2839893, 103.8458439)",1.2839893,103.8458439
698,VANWARD TOWN PTE LTD,"13-273 Boon Lay Ave, Singapore","(1.3470152, 103.7103715)",1.3470152,103.7103715
699,VERIBEL TCM CLINIC,Singapore,"(1.352083, 103.819836)",1.352083,103.819836
700,VITAL HEALTHCARE PTE LTD,"727 Ang Mo Kio Ave 6, #560727 727, Singapore 560727","(1.3726272, 103.8461269)",1.3726272,103.8461269
701,VITALITCM MEDICAL CLINIC,"713 Ang Mo Kio Ave 6, #01-4046, Singapore 560713","(1.3714641, 103.8465105)",1.3714641,103.8465105
702,VITALITY TCM WELLNESS,Singapore,"(1.352083, 103.819836)",1.352083,103.819836
703,WAH TAI MEDICAL HALL,"531 Upper Cross St, #01-34, Singapore 050531","(1.2839893, 103.8458439)",1.2839893,103.8458439
704,WAN SIANG CHINESE MEDICAL HALL,"445, 01-526 Fajar Rd, Singapore 670445","(1.383602, 103.7710299)",1.383602,103.7710299
705,WAN SIANG TCM PTE LTD,"21 Woodlands Cl, Singapore 737854","(1.4349781, 103.8046845)",1.4349781,103.8046845
706,WAN SIEW CHOON MEDICAL HALL,"338 Ang Mo Kio Ave 1, Singapore 560338","(1.363547, 103.84855)",1.363547,103.84855
707,WANG ACUPUNCTURE TCM PTE LTD,Singapore,"(1.352083, 103.819836)",1.352083,103.819836
708,WANG TCM PTE LTD,"133 Ang Mo Kio Ave 3, Singapore 560133","(1.3711623, 103.8426375)",1.3711623,103.8426375
709,WANJI HEALTH PTE LTD,Singapore,"(1.352083, 103.819836)",1.352083,103.819836
710,WANN AUN TCM CLINIC,"166 Woodlands Street 13, Singapore 730166","(1.4336992, 103.7753992)",1.4336992,103.7753992
711,WEI KANG CHINESE PHYSICIAN & ACUPUNCTURE CLINIC,"428 Jurong West Ave 1, #01-252, Block Block 428, Singapore 640428","(1.3516427, 103.725344)",1.3516427,103.725344
712,WELLNESS U CHINESE PHYSICIAN & THERAPY TCM,Singapore 680253,"(1.377542, 103.744413)",1.377542,103.744413
713,WELLSPRINGS HEALTH GROUP TRADITIONAL CHINESE MEDICINE CLINIC,"390 Victoria St, #02-29 Golden Landmark, Singapore 188061","(1.3019085, 103.8578808)",1.3019085,103.8578808
714,WENG ONN SERVICE CENTRE,"445 Fajar Rd, Singapore 670445","(1.383602, 103.7710299)",1.383602,103.7710299
715,WENXIN CHINESE PHYSICIAN PTE. LTD,"Holland Dr, #01-87 Block 42, Singapore 270042","(1.307903, 103.7929577)",1.307903,103.7929577
716,WONDER TCM CLINIC PTE LTD,"7 Tanjong Pagar Plz, Singapore 081007","(1.2771585, 103.8429974)",1.2771585,103.8429974
717,WONDERS OF TCM HEALTH,Singapore,"(1.352083, 103.819836)",1.352083,103.819836
718,WONG SHUK YAN CHINESE PHYSICIAN ACUPUNCTURE,"69 Lor 4 Toa Payoh, Singapore 310069","(1.3341946, 103.8527221)",1.3341946,103.8527221
719,WONG YIU NAM MEDICAL HALL PTE LTD,"61 Ang Mo Kio Ave 8, #15A, Singapore 569814","(1.3717025, 103.8476215)",1.3717025,103.8476215
720,WONG'S CHINESE MEDICAL HALL,"374 Bukit Batok Street 31, #01-178, Singapore 650374","(1.3581629, 103.7507487)",1.3581629,103.7507487
721,WONG'S TCM CLINIC,"810 Choa Chu Kang Ave 7, #01-06, Singapore 680810","(1.3740209, 103.7462496)",1.3740209,103.7462496
722,WOOSAH TCM PTE LTD,"1, Colemen Street The Adelphi, B1-36, Singapore 179803","(1.2911845, 103.8512167)",1.2911845,103.8512167
723,WORLD OF TCM MEDICARE PTE LTD,"711 Geylang Rd, #04-01 Oriental Venture Building, Singapore 389626","(1.3147949, 103.8899652)",1.3147949,103.8899652
724,XI JING TCM CLINIC,"Blk 306 Ubi Ave 1, #01-193, Singapore 400306","(1.3298685, 103.9022552)",1.3298685,103.9022552
725,XIAN LING TRADITIONAL CHINESE MEDICAL CLINIC,Singapore,"(1.352083, 103.819836)",1.352083,103.819836
726,XIANG CHENG MEDICAL HALL & TRADING,"162 Mei Ling St, #01-365, Singapore 140162","(1.292172, 103.8027989)",1.292172,103.8027989
727,XIN HUA TCM THERAPY,"100 Tras St, #02 - 13A 100AM Shopping Centre, Singapore 079027","(1.2749455, 103.8434094)",1.2749455,103.8434094
728,XIN MEI TCM CENTRE,"416 Ang Mo Kio Ave 10, Block 416 Block 416, Singapore 560416","(1.3645847, 103.8550943)",1.3645847,103.8550943
729,XIN QUAN ACUPUNCTURE CENTRE AND MEDICAL HALL,Singapore,"(1.352083, 103.819836)",1.352083,103.819836
730,XIN WEI TCM CLINIC,Singapore,"(1.352083, 103.819836)",1.352083,103.819836
731,XIN YUE TCM THERAPY CLINIC,"Blk 7 Tanjong Pagar Plz, #02-110, Singapore 081007","(1.2771585, 103.8429974)",1.2771585,103.8429974
732,XING CHUN TCM CLINIC,"Blk 114 Ang Mo Kio Ave 4, #01-361, Singapore 560114","(1.3727088, 103.8358876)",1.3727088,103.8358876
733,XING JIAN TCM CLINIC,"455 Sengkang W Ave, #01-07, Singapore 790455","(1.3920903, 103.8712262)",1.3920903,103.8712262
734,XING LIN TCM CLINIC,"59 New Upper Changi Rd, #01-1278 Bedok Sunflower, Singapore 461059","(1.324054, 103.9406335)",1.324054,103.9406335
736,XINYI REHABILITATION THERAPY PTE LTD,"39 Opal Cres, Singapore 328427","(1.327548, 103.8663093)",1.327548,103.8663093
737,XIU MENG CHINESE PHYSICIAN THERAPHY,"190 Middle Rd, Singapore 188979","(1.300401, 103.8523563)",1.300401,103.8523563
738,XU YANG ACUPUNCTURE & TCM CLINIC,"120 Canberra Cres, #01-09, Singapore 750120","(1.4455258, 103.8308979)",1.4455258,103.8308979
739,XUAN YUAN CHINESE PHYSICIAN,"16 Teck Whye Ln, Block 16, Singapore 680016","(1.3787335, 103.7551205)",1.3787335,103.7551205
740,XUE YI TCM CLINIC,"Roxy Square II, 50 E Coast Rd, #02-126, Singapore 428769","(1.3043651, 103.9040224)",1.3043651,103.9040224
741,YAN AN TANG TCM CLINIC,"442 Jurong West Ave 1, #01-750, Singapore 640442","(1.3515351, 103.7195532)",1.3515351,103.7195532
742,YANG SHENG GE TCM,"317 Balestier Rd, Singapore 329746","(1.3236747, 103.8517259)",1.3236747,103.8517259
743,YANG ZHENG TANG TCM CLINIC PTE LTD,"Novena Specialist Center #04-02, 8 Sinaran Dr, Singapore 307470","(1.3200182, 103.8447218)",1.3200182,103.8447218
744,YAP TCM CLINIC,"Blk 11A Boon Tiong Rd, #02-09, Singapore 161011","(1.2861065, 103.8289325)",1.2861065,103.8289325
745,YAP TECK SENG SAMUEL T.C.M,"631 Bedok Reservoir Rd, #01-914, Singapore 470631","(1.3332324, 103.9148241)",1.3332324,103.9148241
746,YAP TECK SENG SAMUEL T.C.M PHYSICIAN,"631 Bedok Reservoir Rd, #01-914, Singapore 470631","(1.3332324, 103.9148241)",1.3332324,103.9148241
747,YEE REN TUI NA PHYSIOTHERAPY CENTRE,Singapore,"(1.352083, 103.819836)",1.352083,103.819836
748,YEH'S HEALTH MANAGEMENT PTE LTD,"160 Robinson Road SBF Medical Suite, #04-14 MRT Exit 'F, Singapore 068914","(1.2782794, 103.847904)",1.2782794,103.847904
749,YEOU CHYUAN ACUPUNTURE AND CHINESE MEDICINE,Singapore,"(1.352083, 103.819836)",1.352083,103.819836
750,YI CHUAN ACUPUNCTURE MEDICAL CENTRE,"221 Boon Lay Pl, #02-158, Singapore 640221","(1.3462076, 103.7124343)",1.3462076,103.7124343
751,YI DE TANG TCM CENTRE,"Sims Pl, #01-199 Block 46, Singapore 380046","(1.3171615, 103.8798859)",1.3171615,103.8798859
752,YI EN TCM CLINIC PTE LTD,"BLK 51 Lor 6 Toa Payoh, #01-72, Singapore 310051","(1.3378054, 103.8522623)",1.3378054,103.8522623
753,YI JIN TANG TCM HEALTHCARE,"144 Upper Bukit Timah Rd, Singapore 588177","(1.3423741, 103.7762593)",1.3423741,103.7762593
754,YI KANG SHENG ZHONG YI TANG TCM PTE LTD,"34 Cassia Cres, Block 34, #01-78, Singapore 390034","(1.3095877, 103.8845343)",1.3095877,103.8845343
755,YI REN GUAN TCM MEDICAL HEALTHCARE PTE LTD,"96 Whampoa Dr, Block 96, Singapore 320096","(1.3215632, 103.8556683)",1.3215632,103.8556683
756,YI SHEN AN CHINESE PHYSICIAN & ACUPUNTURE CLINIC,"322 Hougang Ave 5, #01-76, Singapore 530322","(1.3671169, 103.8973404)",1.3671169,103.8973404
757,YI SHENG TCM PTE LTD,"360 Orchard Rd, #07-07 International Building, Singapore 238869","(1.3061653, 103.8310002)",1.3061653,103.8310002
758,YI SHOU TCM HEALTHCARE CLINIC,"183 Jln Pelikat, #01-02, Singapore 537643","(1.3554603, 103.8881644)",1.3554603,103.8881644
759,YI XING TCM CLINIC,"94 Lor 4 Toa Payoh, #01-16, Singapore 310094","(1.3388453, 103.8501391)",1.3388453,103.8501391
760,YI ZHONG TANG TCM CLINIC,"Blk416 Ang Mo Kio Avenue 10, #01-993, Singapore 560416","(1.3667607, 103.8565486)",1.3667607,103.8565486
761,YIFANG TCM CLINIC & BEAUTY SERVICES PTE. LTD,"BLK 703 Bedok Reservoir Rd, #01-3512, Singapore 470703","(1.3370864, 103.9199144)",1.3370864,103.9199144
762,YIKANGSHENG ZHONGYITANG,Singapore,"(1.352083, 103.819836)",1.352083,103.819836
763,YIN FOH SHOUNG MEDICAL SUPPLIERS,"45 Sims Dr, Singapore 380045","(1.3174127, 103.8783863)",1.3174127,103.8783863
764,YING CHUAN CHINESE MEDICAL HALL,Singapore,"(1.352083, 103.819836)",1.352083,103.819836
765,YING HE TANG,Singapore,"(1.352083, 103.819836)",1.352083,103.819836
766,YISHAN TCM CLINIC,"71 Lor 4 Toa Payoh, #01-383, Singapore 310071","(1.3341479, 103.8522937)",1.3341479,103.8522937
767,YISHUN DATONG MEDICAL HALL,"236 Yishun Ring Rd, Singapore 760236","(1.4337945, 103.8390049)",1.4337945,103.8390049
768,YJT TCM CLINIC,"338 Anchorvale Cres, Singapore 540338","(1.399153, 103.8896595)",1.399153,103.8896595
769,YONG CHANG LONG MEDICAL HALL,"139 Tampines St. 11, Singapore 521139","(1.346505, 103.9445516)",1.346505,103.9445516
770,YONG HENG LEONG CHINESE MEDICAL HALL,"411 Yishun Ring Rd, Singapore 760411","(1.4257773, 103.8474426)",1.4257773,103.8474426
771,YONG HER SIN MEDICAL STORE,"59 Marine Ter, #01-87 Haven, Singapore 440059","(1.3058297, 103.9147414)",1.3058297,103.9147414
772,YONG HONG TRADITIONAL THERAPY CENTRE,"146 Potong Pasir Ave 1, #01-109, Singapore 350146","(1.332062, 103.867199)",1.332062,103.867199
773,YONG KANG CHINESE ACUPUNCTURIST,"HDB Bedok #01-638, Bedok North Street 3, S)460530 Block 530, Singapore 460530","(1.3332472, 103.9275759)",1.3332472,103.9275759
774,YONG KANG MEDICAL HALL PTE LTD,"78A Telok Blangah Street 32, #01-05, Singapore 101078","(1.2735091, 103.8091897)",1.2735091,103.8091897
775,YONG KANG TCM CLINIC,"370 Alexandra Rd, B1-17 Anchorpoint, Singapore 159953","(1.2890511, 103.8052155)",1.2890511,103.8052155
776,YONG LI WEN TCM PHYSICIAN,Singapore,"(1.352083, 103.819836)",1.352083,103.819836
777,YONG TAI CHINESE MEDICAL CENTRE + HEALTHCARE PTE LTD,"410 Ang Mo Kio Ave 10, #01-843, Singapore 560410","(1.362687, 103.854642)",1.362687,103.854642
778,YOUNG TCM CENTRE,"No. 46 C (Level 4), Smith St, Singapore 058956","(1.2819244, 103.8447563)",1.2819244,103.8447563
779,YS HEALTHCARE TCM CLINIC LLP,"1 Coleman St, #04-24 The Adelphi, Singapore 179803","(1.2911845, 103.8512167)",1.2911845,103.8512167
780,YU CHENG TRADITIONAL CHINESE MEDICINE HALL,Singapore,"(1.352083, 103.819836)",1.352083,103.819836
781,YU GUO CHINESE PHYSICIAN PTE LTD,"18B Jln Masjid, #B1-01 Kembangan Plaza, Singapore 418944","(1.3203548, 103.9126451)",1.3203548,103.9126451
782,YU HE TANG TCM CLINIC,"111 Somerset Rd, #03-40 TripleOne Somerset, Singapore 238164","(1.3001685, 103.8372952)",1.3001685,103.8372952
783,YU MIN MEDICAL CENTRE,"221 Boon Lay Pl, #02-138 Shopping Centre, Singapore 640221","(1.3461938, 103.7124483)",1.3461938,103.7124483
784,YU REN TCM ACUPUNCTURE AND TUINA CENTRE,"126 LORONG 1 TOAPAYOH #01-557, Singapore 310126","(1.3381702, 103.8450858)",1.3381702,103.8450858
785,YU SHENG TANG (TCM CLINIC),"508 Bishan St.11, #02 384, Singapore 570508","(1.348643, 103.849313)",1.348643,103.849313
786,YU XHENG SG TRADING,"629 Ang Mo Kio Ave 4, #01-996, Singapore 560629","(1.3801351, 103.8404202)",1.3801351,103.8404202
787,YU YING TCM CLINIC,"60 Paya Lebar Rd, #B1-28 Paya Lebar Square, Singapore 409051","(1.3184358, 103.8927403)",1.3184358,103.8927403
788,YUAN AN ZHAN MEDICAL HALL,"281 Bukit Batok East Ave 3, Singapore 650281","(1.3475487, 103.7575258)",1.3475487,103.7575258
789,YUAN ANN ZHANG CHINESE MEDICAL HALL,"11 Rivervale Cres, #01-31A, Singapore 545082","(1.3923205, 103.9045208)",1.3923205,103.9045208
790,YUAN BAO TCM HALL,"71 Kallang Bahru, #01-529D, Singapore 330071","(1.3210502, 103.8704509)",1.3210502,103.8704509
791,YUAN KANG ACUPUNCTURE & HERBALIST CENTRE,"280 Bishan Street 24, Singapore 570280","(1.3575473, 103.8443152)",1.3575473,103.8443152
792,YUAN SHENG TAI TCM,"253 Jurong East St 24, #01-223 Yuhua Village, Singapore 600253","(1.343083, 103.7369844)",1.343083,103.7369844
793,YUAN SHENG TCM CLINIC,"111 Somerset Rd, #08-01 TripleOne Somerset, Singapore 238164","(1.3001685, 103.8372952)",1.3001685,103.8372952
794,YUAN SHENG TCM WELLNESS PTE LTD,"111 Somerset Rd, #08-01 TripleOne Somerset, Singapore 238164","(1.3001685, 103.8372952)",1.3001685,103.8372952
795,YUE HWA CHINESE PRODUCTS PTE LTD,"Eu Tong Sen St, #70 Yue Hwa Building, Singapore 059805","(1.2849599, 103.8434117)",1.2849599,103.8434117
796,YUEN AN ZHAN GINSENG MEDICAL HALL,"1 Jurong West Central 2, Singapore 648886","(1.3399257, 103.7062886)",1.3399257,103.7062886
797,YUEQI CHINESE MEDICAL & ACUPUNCTURE HALL,"84 Bedok North Street 4, #01-23, Singapore 460084","(1.331912, 103.9395697)",1.331912,103.9395697
798,YUKANG TCM PTE LTD,Singapore,"(1.352083, 103.819836)",1.352083,103.819836
799,YUKANGTANG CHINESE MEDICINE CLINIC,"56 New Upper Changi Rd, #01-1290 Bedok Ixora, Singapore 461056","(1.3251009, 103.9409673)",1.3251009,103.9409673
800,YUZHEN TCM & HEALTHCARE CENTRE,"261 Waterloo St, Singapore 180261","(1.2989163, 103.8519697)",1.2989163,103.8519697
801,YY HEALTHY FAMILY SERVICES,"414 Jurong West Street 42, Singapore 640414","(1.3529592, 103.7257634)",1.3529592,103.7257634
802,YZT ACUPUNCTURE CLINIC,"#03-1D, 1 Queensway, Singapore 149053","(1.2875231, 103.8031063)",1.2875231,103.8031063
803,YZY TCM THERAPY & HEALTHCARE,"339 Ang Mo Kio Ave 1, Singapore 560339","(1.3652101, 103.849116)",1.3652101,103.849116
804,ZEN TCM CLINIC,Singapore,"(1.352083, 103.819836)",1.352083,103.819836
805,ZENG ZENG TCM THERAPY CENTRE,"Roxy Square Shopping Centre 50 East Coast Rd 02-29, 34 & 34A, Singapore 428769","(1.3032385, 103.9048732)",1.3032385,103.9048732
806,ZENG ZONG ACUPRESSURE,"Blk 233 Ang Mo Kio Ave 3, #01-1186, Singapore 560233","(1.3675831, 103.8368796)",1.3675831,103.8368796
807,ZENSEI TCM CLINIC LLP,Singapore,"(1.352083, 103.819836)",1.352083,103.819836
808,ZHANG AIPING TCM CLINIC,"137 Potong Pasir Ave 3, #01-148, Singapore 350137","(1.3338892, 103.8660423)",1.3338892,103.8660423
809,ZHANG LEI CLINIC,"150 South Bridge Rd, #01-15 Fook Hai Building, Singapore 058727","(1.2849259, 103.8467126)",1.2849259,103.8467126
810,ZHAOHEQING TCM CLINIC,"416 Bedok North Ave 2, Singapore 460416","(1.3284617, 103.9306227)",1.3284617,103.9306227
812,ZHENG AN TCM PTE LTD,"150, 02-08 Orchard Rd, Orchard Plaza, Singapore 238841","(1.3009768, 103.8410562)",1.3009768,103.8410562
813,ZHENG FONG HUNG CHINESE MEDICAL TREATMENT CENTRE,"50 E Coast Rd, #01-23 Roxy Square, Singapore 428769","(1.303884, 103.9043973)",1.303884,103.9043973
814,ZHENG SIN TANG TCM CLINIC,"125 Lor 1 Toa Payoh, Block 125, Singapore 310125","(1.3383213, 103.8458101)",1.3383213,103.8458101
815,ZHI JIAN MIAO SHOU TCM MASSAGE HOUSE,"MÃ©tis East, Changi Rd, #01-06 338, Singapore 419977","(1.3182725, 103.9085841)",1.3182725,103.9085841
816,ZHI QI CHINESE PHYSICIAN & ACUPUNTURE,"236 Yishun Ring Rd, #01-1020, Singapore 760236","(1.4341049, 103.8388489)",1.4341049,103.8388489
817,ZHIN LOO CHINA CHINESE TRADITIONAL TREATMENT CENTRE,Singapore,"(1.352083, 103.819836)",1.352083,103.819836
818,ZHONG HUA TCM MEDICAL CENTRE,"186 Toa Payoh Central, #01-420, Singapore 310186","(1.3327469, 103.8502259)",1.3327469,103.8502259
819,ZHONG KANG TCM CLINIC,"825 Tampines Street 81, #01-62 Shop T West, Singapore 520825","(1.3495277, 103.9324664)",1.3495277,103.9324664
820,ZHONG LIN CHINESE MEDICINE TREATMENT CENTRE,"633 Bukit Batok Central, Singapore 650633","(1.3492281, 103.7511473)",1.3492281,103.7511473
821,ZHONG YI CHINESE MEDICAL CENTRE PTE LTD,"157 #01-62 Mei Ling St, Singapore 140157","(1.2930056, 103.8035591)",1.2930056,103.8035591
822,ZHONG YI FANG TCM CLINIC,"620 Hougang Ave 8, #01-282, Singapore 530620","(1.3702072, 103.8837245)",1.3702072,103.8837245
823,ZHONGGUANTANG TCM,Singapore,"(1.352083, 103.819836)",1.352083,103.819836
824,ZHONGHENG CHINA TCM CLINIC,"Block 139 Tampines St. 11, #01 84, Singapore 521139","(1.3465107, 103.9445593)",1.3465107,103.9445593
825,ZHONGJING TCM,"354 Clementi Ave 2, #01-169, Singapore 120354","(1.3139614, 103.7709339)",1.3139614,103.7709339
826,ZHOU CHINESE PHYSICIAN & TREATMENT COMPLEX,Singapore,"(1.352083, 103.819836)",1.352083,103.819836
827,ZOU YUMIN TCM PHYSICIAN & ACUPUNCTURIST,"BLK 505 Ang Mo Kio Ave 8, #01-2670, Singapore 560505","(1.3748745, 103.8502032)",1.3748745,103.8502032
828,ZUO QUAN TANG TCM CLINIC,"826 Tampines Street 81, #01-116, Singapore 520826","(1.3493374, 103.9336591)",1.3493374,103.9336591
